ExternalID,Name,Phone,Street,Zip,State,Website
14fcd1af-0a62-419b-8d45-e0d238a97412,Hills and Sons,202-159-1462,5148 Sundown Place,20404,District of Columbia,http://ehow.com
3542e898-086a-4617-b1b3-07e6b717afc6,Cronin Group,814-335-2713,5125 Westerfield Way,16565,Pennsylvania,https://aol.com
de6fe2ae-1548-4442-a2b0-2196a4a53d71,Keebler-Kunde,616-982-9009,3601 Oakridge Way,49544,Michigan,https://ow.ly
63994cc1-17ec-4676-9edf-fa9aa82a7912,"Lebsack, Kessler and Farrell",254-920-5490,27638 Barnett Terrace,76505,Texas,http://hubpages.com
b23ef65b-2d6e-4e83-a254-a1070aad2010,Schulist Group,206-170-6994,2 Kensington Drive,98109,Washington,http://blinklist.com
627a0d1d-0e81-4e8f-9266-b78d649db3c5,Barrows LLC,901-753-0170,2658 Crowley Road,38136,Tennessee,http://vistaprint.com
f20f7da3-928e-465a-b95f-7242c65edf3d,Swift-Jenkins,513-965-0821,9917 Northview Road,45243,Ohio,http://dyndns.org
4c29e8fb-ec5d-45c9-a776-778bbb034496,Ullrich and Sons,508-442-3637,4 Sutteridge Parkway,01605,Massachusetts,https://ameblo.jp
eb35ee8a-2edd-414c-b9af-5b1be6644601,Dickinson LLC,512-924-2431,77598 Memorial Road,78759,Texas,https://netscape.com
94d84d06-6492-4727-9643-91e54df38992,Kertzmann-Zulauf,808-226-0148,323 Fieldstone Circle,96825,Hawaii,http://cbc.ca
bb2bcee1-6bf7-4051-a908-8500ac74c841,Gottlieb-Bailey,405-152-4486,725 Transport Terrace,73124,Oklahoma,http://tiny.cc
3070af96-e32b-45b8-b1e5-8704bb5b9bf1,"Jaskolski, Romaguera and Mohr",205-890-0348,1 Thierer Point,35285,Alabama,https://uiuc.edu
90bee2ea-137c-403a-922f-595f092ea95e,Zboncak Group,859-136-5997,9 Debra Pass,40510,Kentucky,https://xrea.com
ff11f6d5-b210-440f-af6a-9901bd5ab6e5,"Pagac, Barrows and Thiel",432-484-5667,7206 Spohn Pass,79764,Texas,https://arizona.edu
3cf68857-768b-4a36-9859-cea869de4215,Ernser-Welch,619-277-0456,03861 Dahle Terrace,92196,California,https://csmonitor.com
550fac84-c4c9-4832-8abe-238e3e5299dc,White and Sons,859-670-2106,06807 Buena Vista Street,40576,Kentucky,https://123-reg.co.uk
3839dc48-1db8-4741-ae67-9e801bd70acf,Green-Simonis,334-754-6352,24 Mallory Court,36114,Alabama,http://rambler.ru
d8f61d0d-271b-4f33-811d-c71a16b0757b,"Bogisich, Brown and Abbott",941-447-9753,490 Spaight Pass,34282,Florida,http://mlb.com
9033a378-53a6-4523-bf4b-7cd98d23d457,Bahringer-West,651-252-4603,3207 Barby Way,55127,Minnesota,http://mtv.com
dc511473-bdda-4066-83e4-49e0e28c0df3,"Romaguera, Gerhold and Effertz",916-734-7122,78 Fulton Avenue,95823,California,http://ucoz.com
f8c2b243-bd5e-4ce8-8d52-46d0162090d4,Rodriguez LLC,734-811-0394,30367 Swallow Lane,48242,Michigan,http://upenn.edu
d107b9bf-dac2-4825-91f8-6551c071dc0a,Nicolas-Kerluke,513-645-0132,860 Fair Oaks Hill,45203,Ohio,http://list-manage.com
e0976246-2b86-42a4-907c-e16203516cf3,Ryan Inc,904-796-8634,30680 Moose Court,32255,Florida,https://wordpress.org
64a2fae1-37df-4b6d-8cd4-7c2592f99b01,Kirlin-Goodwin,508-149-5897,34 Glendale Avenue,02305,Massachusetts,https://list-manage.com
242d73b7-f370-428b-b874-6122364dcfb5,Torp Inc,412-418-6707,95413 High Crossing Road,15215,Pennsylvania,http://plala.or.jp
385d650f-c2c1-47e3-b034-c244cab63ee8,"Quitzon, Mueller and Feeney",801-224-7612,3 Huxley Avenue,84145,Utah,http://google.pl
c7e2f44f-fbe3-4473-8a18-1662cfb01f23,Fisher-Reichert,205-152-4338,1090 Dovetail Court,35236,Alabama,http://nationalgeographic.com
c32a7cbf-96c9-42ba-ad46-118f8eb20ff0,Ryan-Kertzmann,312-136-6265,9915 School Pass,60636,Illinois,https://tinyurl.com
c4f8e049-98a2-4559-a385-fffe29f86869,Prosacco-Lynch,816-686-8502,020 Magdeline Hill,64187,Missouri,https://gov.uk
9054ed85-5146-412c-b729-ffec6eecd485,"Ruecker, Kshlerin and Romaguera",412-930-4269,1 Nevada Alley,15250,Pennsylvania,https://loc.gov
8fc68a0a-a9e4-43dd-9768-cd39d8340e5d,"Rolfson, Lemke and Parker",585-743-5516,8993 Dexter Lane,14614,New York,http://friendfeed.com
43e0ecad-6412-4e08-8c49-89b20f864977,"Block, Armstrong and Yost",515-856-8468,69487 Harper Parkway,50320,Iowa,http://nhs.uk
ce48292a-423a-4159-a607-74a755d7ffe2,Mitchell Group,321-126-8041,4 Golf View Parkway,32813,Florida,http://patch.com
9bc840b4-4ef7-43e7-a47c-9a8ca09a7193,Stark-Mayer,315-955-1997,38861 Schiller Court,13210,New York,http://unicef.org
dd04baed-5673-4a05-8ea6-1963cfd44866,Thiel LLC,325-101-4803,3 Independence Lane,79699,Texas,http://cpanel.net
58513f91-74f2-4512-bc4a-5395daec28a5,"Hammes, Schumm and Reinger",314-699-1462,49419 Badeau Alley,63104,Missouri,https://google.com.hk
3688eefb-0835-44d1-b2f0-668d8127672c,Klocko-Feest,518-730-8047,529 Huxley Place,12205,New York,http://rambler.ru
d7c41631-cb1b-4a3c-979b-0ae7a2889121,Von Inc,860-546-5563,28264 David Court,06152,Connecticut,http://apple.com
ce394296-4e59-42e0-af8f-cef45a8f68da,"Dibbert, MacGyver and Batz",313-161-0143,9 Ludington Alley,48275,Michigan,http://unc.edu
d4a91d12-1392-4453-b7d8-eba839df021b,Lueilwitz and Sons,817-326-5208,03 Clarendon Drive,76105,Texas,http://google.co.uk
4ad7c5cb-c129-4299-b94f-d13a2510e40c,"Abshire, Hauck and Sanford",520-380-8267,32 Elgar Plaza,85743,Arizona,https://youtu.be
522f89ee-8acc-4969-932a-6fa855786a68,Nolan and Sons,202-207-7445,4119 Northwestern Lane,20566,District of Columbia,http://oracle.com
b96c3feb-5b94-4e4c-9992-84b4a5529df6,"West, Buckridge and Metz",559-646-6967,42 Merry Point,93786,California,https://state.gov
177bb3b9-d1d5-4f77-9aaa-0f14dc65f834,Toy Inc,206-457-0892,5 Corben Terrace,98127,Washington,http://nationalgeographic.com
a59d02ee-a9c2-4cbf-b5f6-4d81371b2e5d,Reilly LLC,423-674-4607,9591 Thompson Place,37405,Tennessee,https://dyndns.org
d74ee578-6af3-42f9-86c3-5494061e3989,"Lowe, Hettinger and Lesch",763-900-7029,6 Novick Way,55565,Minnesota,http://dyndns.org
d575a2cd-d40b-4131-855d-80780d9e9c54,Schmitt-Thiel,540-373-1938,77468 Valley Edge Point,24009,Virginia,https://meetup.com
b0f7360f-30b9-4f87-a9e7-a7044e86ea14,Schaefer and Sons,434-959-6427,76996 Huxley Street,22111,Virginia,http://mayoclinic.com
5d33149c-95fa-4b8f-9def-1152d0fb4268,"Purdy, White and Weber",281-624-2881,8 Sullivan Place,77085,Texas,https://scientificamerican.com
cd0c16fe-4cf8-47f4-8a06-f98d483137cd,"Renner, Walker and Ziemann",915-146-7615,3 Londonderry Point,79999,Texas,https://pinterest.com
7a810c34-1d77-4ee3-86d7-eb4c7ce87bdc,Hirthe-Miller,251-382-0304,8 Sommers Drive,36610,Alabama,http://dagondesign.com
8814a458-0036-4447-94f5-0ee4af8b8e8b,"Hauck, Cremin and Willms",503-628-3046,2 Quincy Center,97296,Oregon,http://slideshare.net
ab4c73e8-22d4-413f-9240-bc1e401b0518,"Hand, Rohan and Larkin",714-169-9019,37 Hoffman Road,92725,California,https://ameblo.jp
dfee780d-0893-45ae-958a-9f4c1ca448ea,"Green, Mueller and Schumm",773-521-7182,2 Erie Circle,60624,Illinois,https://behance.net
83be4325-3a06-4899-a567-f1c824e7ba15,Lehner LLC,414-697-2213,32 Marquette Lane,53225,Wisconsin,https://alexa.com
f9e00f07-a097-4de0-a646-4482f8e7bd29,"Dare, Huels and Parisian",502-838-9106,1200 Jenna Terrace,40266,Kentucky,https://yale.edu
e0a70469-9e85-4cff-871a-b1cafbeb6b87,"Bogisich, Kulas and Bashirian",513-854-7958,5 Mcbride Circle,45213,Ohio,http://storify.com
3c5858c1-e76b-40c1-bee9-7f87bc39515f,"Hayes, Grimes and Skiles",225-540-2716,872 Emmet Drive,70815,Louisiana,http://github.com
5dbf4aa9-f36c-406b-ae4e-a106a67f107a,Langworth-Marquardt,518-189-4985,8 Spaight Hill,12305,New York,https://csmonitor.com
1309889c-741d-43b3-a2e7-042148634db3,Maggio and Sons,804-730-6246,1626 Lerdahl Plaza,23260,Virginia,https://technorati.com
954ffbfe-4996-47ac-b6b6-161e00e9f70a,Hamill-Jerde,803-262-8513,9 Crest Line Alley,29208,South Carolina,http://vinaora.com
fa4c16b2-f56a-4425-878c-1685bc2f5283,"Donnelly, Lockman and Rempel",479-601-7589,64219 Granby Parkway,72916,Arkansas,https://meetup.com
292c07a8-803b-4662-ab99-276fad6aceb7,Ritchie Group,260-659-6178,9906 Grasskamp Crossing,46867,Indiana,http://latimes.com
e5b57567-175c-4c6e-984b-137f6f7ec4c2,"Herman, Waters and Kiehn",510-681-0325,46 Fulton Road,94705,California,https://jigsy.com
a307b04c-f175-479d-9ef6-447c0a7d098e,"Kilback, Ankunding and Jacobs",901-687-8197,5 Stang Terrace,38188,Tennessee,http://cnbc.com
2805a18d-70a3-479b-b367-ea58964ac7c3,Rice LLC,804-937-7287,44814 Orin Park,23285,Virginia,http://ted.com
a4c558f0-aa4d-4ae8-b36b-b69778877e45,"Nikolaus, Walker and Little",757-681-5265,33 Pleasure Hill,23520,Virginia,http://japanpost.jp
94236a66-c202-4265-9419-e6ab23260b48,"Predovic, Lehner and Dibbert",757-612-3697,84 Burning Wood Hill,22070,Virginia,http://amazon.co.jp
85742489-e2ef-4673-9416-17b84e924d9b,"Will, Pouros and Streich",773-498-6983,32492 Dryden Court,60609,Illinois,http://addthis.com
23ff66d7-0194-4752-9612-28a45f3291f1,Schaden-Moore,408-750-1531,411 Dakota Lane,95194,California,http://newsvine.com
a482c1d0-505f-4690-8a29-cffb668d2bb9,Runolfsdottir-Hermann,650-114-0060,2853 Bultman Way,95113,California,https://cnet.com
2505db5d-358b-43f9-866e-3a2d0587b7c5,"Weber, Gleason and Considine",918-648-8768,5605 Golf View Park,74126,Oklahoma,https://last.fm
cc9916be-f488-478c-acbc-1ef499cad8ab,"Wehner, Kutch and Hammes",850-631-4125,3 Evergreen Junction,32520,Florida,https://pagesperso-orange.fr
a2c6dbe7-fce1-4af7-820b-032f8993a55d,Glover and Sons,574-209-4781,92 Westend Lane,46699,Indiana,http://cdbaby.com
d9da40f4-be6f-42f3-bf76-546b52c8187a,"Stamm, Mraz and Hessel",248-325-4631,239 Arizona Hill,48335,Michigan,http://amazon.de
2ee25cd2-c500-4252-8b6d-b2b0be5b82e8,"Nitzsche, Howell and Hane",502-706-1436,48404 Vernon Street,40215,Kentucky,https://about.me
bddeb89a-739c-4648-8331-943bc1b8685b,"Hansen, Kihn and Konopelski",602-789-9602,76492 Kinsman Alley,85246,Arizona,https://tinypic.com
161d6083-618d-453d-9a92-14371214b3c0,Gottlieb-Sporer,704-727-6168,378 Bay Road,28299,North Carolina,https://zimbio.com
4ef5d89a-7207-467a-baf2-1570f2c25760,Kuhic LLC,817-599-1333,138 Clemons Place,76134,Texas,http://youtube.com
eeb440bc-6211-47a0-819d-d6de45b27bb8,Moore-Gulgowski,918-405-6542,01 Vermont Pass,74133,Oklahoma,http://google.ca
1d795162-28c3-4457-9ff2-790915744e41,Schamberger Inc,801-382-1003,835 Tennessee Crossing,84152,Utah,https://amazon.com
c2511ccc-9d76-4436-8ae9-9e8419929444,Kshlerin Inc,402-785-9686,1601 Superior Point,68505,Nebraska,https://domainmarket.com
ad0fdd9d-1849-4084-85c8-d6eda10a2884,Rice-Bradtke,718-723-5338,61 Center Hill,11388,New York,https://blogtalkradio.com
c0a471aa-9a2c-4f7f-8157-86e1f7b0bc6a,Keebler-Von,619-996-3010,1 Lotheville Road,92186,California,http://uol.com.br
3f80bf35-4b12-48a2-aa72-8d2033680ac6,Kovacek and Sons,303-272-4147,286 Calypso Drive,80235,Colorado,http://fda.gov
1df47ec4-f9f2-40f4-a3d7-8f456a9ceecd,Hayes-Mills,512-473-2098,65 Petterle Circle,78759,Texas,https://squidoo.com
2726d316-16c1-4b15-8ff1-fcbd96fb2208,Shanahan and Sons,601-863-5111,97801 Shelley Point,39282,Mississippi,http://bloomberg.com
3db31861-342c-4c1c-876e-d53887f5d6fe,"Hoppe, Wolff and Koch",561-843-1505,10392 Shasta Alley,33499,Florida,http://hatena.ne.jp
e93d2c6e-9939-424e-bcc4-ecafafbb98fc,Rice-Leffler,571-727-1109,483 Duke Terrace,22313,Virginia,http://accuweather.com
72b37e53-02c0-494b-80b6-c3e7c9577e6b,Morar Group,502-993-3096,6 Clove Court,40618,Kentucky,https://patch.com
a3ca4666-e56a-4999-b882-6765bd60022b,Heidenreich Inc,318-841-7787,8 Fieldstone Circle,71307,Louisiana,https://sitemeter.com
6eccd3e8-df14-4827-956c-ecc3063602b3,Lueilwitz-Lockman,901-941-7130,670 Sachs Plaza,38181,Tennessee,https://geocities.com
7ec46b45-baf4-47d0-99bf-b141c35e0ba5,Considine-Bode,202-931-7141,58012 Ilene Hill,20010,District of Columbia,https://omniture.com
497ef93d-a662-40c2-bbfe-95ee40bed209,Luettgen and Sons,770-569-5875,3 Summerview Park,30033,Georgia,https://wisc.edu
4859a6b1-d538-4ba9-bbe1-5dc6c1e15b00,Kihn and Sons,202-492-6410,276 Larry Pass,20067,District of Columbia,http://addtoany.com
fe6b8198-7de0-45c0-9c02-6e29af26dab6,Emmerich-Ratke,717-520-1646,833 Loftsgordon Terrace,17105,Pennsylvania,https://cocolog-nifty.com
016f4d10-4480-495d-9898-8d79567c65e2,Armstrong-Watsica,305-891-8509,43 Amoth Pass,33034,Florida,https://technorati.com
548bd1da-aace-4e45-bcaa-1500a8660785,Schuppe-Frami,646-199-1363,22448 Farwell Court,10060,New York,http://reddit.com
086275af-981d-4002-b09e-a3ba91383eef,Walker and Sons,608-563-1775,7 Nelson Junction,53779,Wisconsin,https://dailymotion.com
400dcdbd-1b3d-45e2-9d2f-f30cd411ccd9,Pfannerstill and Sons,502-833-9853,52 Carioca Parkway,40210,Kentucky,https://youku.com
6e2169b9-be3e-4126-8555-dc6111d5c042,"Hermann, Lehner and Wyman",203-810-4225,2788 Namekagon Center,06912,Connecticut,https://google.fr
1e01aab0-d540-45f3-b822-38a51f970cfc,Sauer LLC,254-458-4083,59941 Florence Trail,76598,Texas,http://nature.com
67f1064b-0e3b-4e0c-bfb9-56c504cbce20,Brekke-Jacobi,904-745-3407,336 Autumn Leaf Junction,32209,Florida,http://cloudflare.com
0297dbc1-e730-486b-8d7c-b1f530afe0e5,"Block, Bradtke and Goodwin",915-727-5254,7008 Reindahl Drive,79999,Texas,http://eventbrite.com
1a069c82-2f79-4c18-b77d-3fecdcdbfd0e,"Herzog, Paucek and Hoppe",206-965-7950,59 Sachtjen Lane,98140,Washington,https://mayoclinic.com
97c1e5f9-4518-41d4-b061-1f47a0c5743c,Smitham-Hodkiewicz,515-491-8640,50 Pennsylvania Pass,50315,Iowa,http://usgs.gov
00fce57a-034d-4e05-9c78-7c994da99128,"Reichel, Jast and Schumm",254-290-1970,066 Comanche Road,76505,Texas,https://blogs.com
b18b68e4-d64d-4b06-b361-68b8bfa35132,Cummings Inc,260-630-3855,8697 Lotheville Drive,46857,Indiana,http://princeton.edu
e4dedd1e-521c-418a-a10a-2f35dc610a9a,Hessel Group,702-350-0937,6756 Sullivan Parkway,89125,Nevada,https://alibaba.com
9de84171-09a8-4e82-bb96-075c5424e451,"Reichert, Ledner and Wisozk",831-513-5844,8 Washington Lane,93907,California,https://goodreads.com
95578053-e007-47df-991f-3574e03b83e9,Reilly-Simonis,214-544-2313,52 Commercial Pass,76011,Texas,http://angelfire.com
bcb49293-2334-4826-ac19-866498d3fb88,Watsica-Friesen,205-763-9258,12 Duke Lane,35242,Alabama,https://ihg.com
42b5180e-c096-4688-925a-3b2cd9ab95b2,Bahringer-Graham,937-844-3396,8 Acker Way,45505,Ohio,https://joomla.org
02c4aff4-0218-4e15-b1e6-0b73224f76f4,"Casper, Renner and Barrows",304-315-8517,8 Lunder Trail,25326,West Virginia,http://histats.com
afdcfd18-5e47-4637-ae74-f98e31fb6deb,"Balistreri, Farrell and Gleichner",619-636-4810,3521 Katie Lane,92191,California,https://is.gd
e1ec946f-5e51-4123-90b2-a5ae1252e3d5,Emmerich-Wiegand,916-841-2360,0 Carioca Trail,94286,California,https://usgs.gov
3455a101-8f51-4259-b932-7fdc0e969b5d,Okuneva LLC,919-139-3046,2194 Corben Terrace,27621,North Carolina,https://etsy.com
16dcf5b5-a5bf-4259-bae8-5ee265a68799,"Kessler, Larkin and Grimes",678-119-9726,18 Roxbury Point,30195,Georgia,https://house.gov
17c99cdc-c715-4b49-8bb3-b5301caf46bd,"Cassin, Parisian and Mohr",330-707-1336,3 Stang Avenue,44511,Ohio,https://globo.com
d2afc99b-d3ef-4c28-8923-f53bc1e47f24,Ferry-Anderson,832-820-5130,1296 Dexter Center,77090,Texas,https://wisc.edu
1552f806-16e3-4330-93b6-cebe58ec9c0b,Walter LLC,202-893-9730,31 Eastlawn Hill,20205,District of Columbia,https://amazon.co.jp
f5f4ac59-0b53-4ad8-b356-6151c3a5cdd8,"Hintz, Grant and Wolff",202-447-2362,851 Lunder Terrace,20057,District of Columbia,http://goo.gl
421ae7b9-dba2-4a8f-8102-96d54c49cf51,"Huel, Stoltenberg and Rempel",612-320-5469,1 Toban Crossing,55480,Minnesota,http://lulu.com
5322ea4f-376b-4d4d-9a26-9e76d8fee05a,Feil-Barrows,404-676-0547,64225 Westridge Crossing,30066,Georgia,http://wisc.edu
c96d5ef8-c5e5-435d-b62e-5e5638658d53,"Bruen, Zboncak and Leuschke",469-220-7338,04024 Bowman Drive,75342,Texas,https://sfgate.com
096c0ca3-db19-4448-95bf-fec5407cc5dc,Hayes Inc,336-861-2497,10 Shelley Street,27116,North Carolina,https://alexa.com
6db47009-5234-40f4-98ba-7b2d03e529eb,Lehner-Hahn,940-452-5394,7 Mockingbird Trail,76310,Texas,http://cbslocal.com
31d776d6-efc5-4687-99ef-82ec9cb752fc,Buckridge-Wilderman,907-165-4203,2069 Lyons Plaza,99790,Alaska,https://guardian.co.uk
b3a6f49b-5e82-4350-a783-e7312e7f26bd,Schmitt-Keebler,402-637-3488,4 Scofield Court,68144,Nebraska,https://columbia.edu
dabd4771-27e6-48dc-b902-a2429e0ae693,Boyer-Crooks,858-869-6110,59 Northwestern Court,92127,California,https://youku.com
6fde345d-bd87-4415-b7db-1168e17a5b5c,"Satterfield, Wolff and Heaney",509-692-0712,642 Merry Point,99210,Washington,http://answers.com
ec08b2a3-98e8-4427-822f-214d02b86175,Dicki-Hodkiewicz,903-955-3698,654 Hazelcrest Court,75605,Texas,http://java.com
c24144db-13a0-4572-9ec7-45abb25cbe03,Carroll Inc,919-141-9434,7 Lotheville Point,27621,North Carolina,http://about.me
3dadecd3-2e00-431e-af66-9810edb1c8df,Mayer Group,408-396-6690,68 Cascade Street,95123,California,http://mysql.com
e742ace3-7ed8-4ab8-9fd9-32f18328a0ca,"Grimes, Tromp and Will",512-712-1246,1224 Grasskamp Drive,78715,Texas,https://webeden.co.uk
8808b8f1-9687-4917-821c-4f8f2f481a36,"Dooley, Kassulke and O'Connell",505-457-3873,00 John Wall Street,88006,New Mexico,http://jigsy.com
46c8169b-341b-465d-8fc2-efcc7c4d29ff,Purdy-Grady,912-605-2204,69 Talmadge Center,31217,Georgia,http://yale.edu
1c3448ef-cd8b-4d46-9b8a-7cd313278867,Gulgowski-Schmeler,614-133-8166,1 Granby Circle,43215,Ohio,http://hhs.gov
def72471-08f7-409d-a67e-62606e4219c8,Terry Group,808-861-0729,44857 Rowland Pass,96805,Hawaii,https://china.com.cn
287cf53e-6174-45bf-b2d0-11546d07986e,Cormier and Sons,281-773-0241,82371 Pawling Way,77050,Texas,https://lycos.com
a5c4b81b-6495-4106-bfa7-7ce7e3a42d27,Witting Group,702-436-6329,6 Twin Pines Plaza,89140,Nevada,https://google.co.uk
194028e4-686c-4ac1-8c76-90b486774e88,Cartwright Group,716-295-8209,808 Cascade Place,14210,New York,http://hatena.ne.jp
0ca03afd-375d-465d-99b1-f25402d0861b,"Daniel, Farrell and Hermann",334-593-9789,79540 Green Ridge Junction,36125,Alabama,http://google.nl
191d8cce-1208-4560-8175-5564b23f881f,Feest-Kuhic,281-763-0207,199 Hudson Drive,77346,Texas,http://51.la
66eab80c-4b2c-4df8-b95a-94d1b5866718,Yundt Inc,419-561-4797,0 Westend Center,44905,Ohio,https://va.gov
e9aa8eb0-d2e8-4b59-ab26-5eee5be24315,Rau-Barrows,423-499-4536,52164 Eastwood Court,37410,Tennessee,http://technorati.com
475c21ed-c8e3-4d19-9f3d-0ab6c8a696ed,Schoen-Kemmer,404-820-7209,63422 Superior Trail,30368,Georgia,https://phoca.cz
9cb7526e-b607-4f20-b085-3ad93c8bbc4a,Mills-Swift,952-973-2894,0 Corscot Park,55573,Minnesota,https://dion.ne.jp
b0d1aba8-2aab-4bf7-bd72-c62a32eacfe2,"Keebler, Labadie and Leannon",602-142-3888,9 Northland Way,85072,Arizona,http://weibo.com
d10ecf77-6621-4e4e-a54b-1184fc4c7ef0,Cremin-Greenfelder,202-867-8943,419 Waxwing Hill,20073,District of Columbia,https://unblog.fr
d5ad993d-b558-494c-8d9a-3f0c7be8add5,"Steuber, Gulgowski and Jaskolski",919-895-7849,3 Utah Point,27705,North Carolina,https://blogs.com
dccab3e2-5e77-435c-8343-ce1fc0d2b293,Bashirian-Harris,309-589-9641,26365 Golf View Crossing,61605,Illinois,https://marketwatch.com
53444c0e-9862-410d-81f4-c7327a0f679e,"Hauck, Ziemann and Harber",415-714-0601,535 Ridgeway Lane,94105,California,https://exblog.jp
c57878df-c5c3-4fe4-8241-cc4e38c560f4,Brekke LLC,347-191-1283,06 Steensland Avenue,11241,New York,https://newsvine.com
e1152595-1cbb-4c78-9096-710ab3b3623f,Muller Group,801-168-7946,25236 Becker Point,84189,Utah,http://networkadvertising.org
907231fb-af85-4ebc-ac1c-30f0812b6c48,"Predovic, Runolfsdottir and Crona",304-212-4862,13818 Gina Lane,25716,West Virginia,https://wordpress.com
b93b6370-ecbe-4570-8708-68b3a8e7baba,"Weimann, Hodkiewicz and Heidenreich",918-398-6001,05046 Tennyson Street,74126,Oklahoma,http://istockphoto.com
5687ea3d-a301-4580-a66c-b46777b88e4f,Towne-Schuppe,917-883-9054,73 Rowland Road,10045,New York,http://e-recht24.de
350a571d-6d21-492d-89df-ef0c6a1b5c6c,Kutch LLC,763-649-7543,4194 Dovetail Lane,55590,Minnesota,http://parallels.com
aa88cdcd-9e48-4175-b45c-83e953305ee0,"Frami, Turner and Bosco",916-952-4323,655 Jackson Lane,95813,California,http://constantcontact.com
e7c548e2-7c5e-4119-9534-00454a5c3568,VonRueden-Cummerata,713-764-2426,41313 Shasta Alley,77346,Texas,https://go.com
4ca72a40-c681-4285-973e-45511f03e4a5,Heathcote-Konopelski,832-831-6908,5 Anderson Way,77015,Texas,http://msn.com
e53188f3-1643-41af-b20e-c8accb2b43f3,"West, Homenick and Kulas",615-538-3476,6 Milwaukee Plaza,37215,Tennessee,https://columbia.edu
11f56f5d-766f-4d82-a37b-50b65bd6e240,Altenwerth-Tremblay,515-145-1798,9959 Vahlen Circle,50369,Iowa,http://deliciousdays.com
7def641b-3571-44d9-aced-636cc9543fa5,McCullough LLC,504-590-7918,45746 High Crossing Court,70116,Louisiana,https://walmart.com
efa3dc87-562c-4be6-9963-c3113b15db5f,Stanton-Romaguera,806-605-7517,78 Hazelcrest Trail,79182,Texas,https://diigo.com
9074f8d6-863d-462d-93c9-21e62ebb6e35,"Schmidt, Weissnat and Lowe",303-292-2024,27290 Village Court,80217,Colorado,https://slashdot.org
3ad4c9a0-18f5-4537-817b-5448313aeefc,Schamberger-McLaughlin,202-603-4647,087 Shopko Parkway,56944,District of Columbia,http://360.cn
ad947c4d-293b-46f9-aa1b-82fc356ee688,Stiedemann-Dickens,210-890-7006,3791 Carey Pass,78205,Texas,https://domainmarket.com
45ac5b6d-b8fa-42b2-a3e5-b2399baf2f1e,Welch-Kshlerin,209-462-2715,50 Elmside Avenue,93704,California,https://weather.com
186263f1-4342-4308-91ca-cba2e466630f,Kertzmann LLC,317-771-0765,666 Farragut Hill,46247,Indiana,https://netscape.com
e522197d-c036-4062-8607-cb88de7b1d9e,Fritsch Inc,772-813-1242,0 Logan Circle,34949,Florida,http://hostgator.com
942ac378-17e1-4c4a-a44a-2887ea2ee675,Harris-Schmeler,212-443-1378,858 Merchant Terrace,10120,New York,http://sun.com
7896e6e8-482c-4caa-be15-e33cd9f96a92,Hammes Group,480-823-3892,52 Vidon Parkway,85005,Arizona,https://wired.com
61d00a4e-fabc-497a-8538-457ae8f26844,Wolff-Hagenes,501-712-1985,96 Hazelcrest Circle,72215,Arkansas,http://hc360.com
6c530be0-c4aa-476b-a437-c7771265fc56,Kutch-Ledner,734-164-0568,5 Iowa Pass,48107,Michigan,http://prnewswire.com
d5ef317b-a578-4494-9cfe-1ba128a96166,"Heaney, Bernier and Mueller",517-360-7558,777 Dunning Hill,49048,Michigan,http://mysql.com
91d96a9c-f2ee-489d-a97a-2f87b9a60a29,Barton Inc,914-157-8235,39639 Fair Oaks Pass,10633,New York,http://usa.gov
844f5ba7-3b8d-4bdd-952c-d24b00d61e5e,"Padberg, Davis and Daugherty",917-797-4812,60 Reinke Circle,10105,New York,https://cocolog-nifty.com
9a8f4695-46a8-4878-bbce-4e88dd287b59,"Kris, Champlin and Stoltenberg",814-765-3111,4 Schmedeman Court,16522,Pennsylvania,https://toplist.cz
4184e0b3-5b85-4e49-a467-59ba90855464,Koelpin-Wisozk,217-354-4856,13 Northridge Hill,62525,Illinois,https://ca.gov
d68bc844-a090-4176-8564-4fdd9cc23836,"Larkin, Kohler and Herman",805-647-1107,27 Scott Way,93034,California,http://army.mil
0c62a25e-8e0b-4668-bb20-ef19f7ef13c8,Abbott-McKenzie,210-322-7747,52635 Goodland Alley,78245,Texas,http://si.edu
d47a5f02-3ea3-4612-b4a9-dd44d532c697,Murphy-Murazik,212-669-9990,3 Alpine Terrace,11247,New York,https://yale.edu
f31b01bb-6f96-44dc-8249-53dbfe42cc5a,"Boehm, Daniel and Stracke",267-157-0842,1061 Hansons Avenue,19146,Pennsylvania,https://wordpress.com
0c15d56e-74af-4581-9ba5-2266f745eaba,Tromp LLC,989-634-6053,43 Fuller Point,48670,Michigan,https://hud.gov
b9cd4910-caa7-4a22-a06f-af236188d8e8,Grady and Sons,785-962-1326,8 Pankratz Parkway,66667,Kansas,https://cisco.com
ef36f7fe-81b1-47d0-8624-13ab55e5575e,"Kuvalis, Abbott and Collier",404-803-9081,0905 American Trail,30375,Georgia,http://delicious.com
d1c40040-1e2b-4b56-b619-e760a7a9fcc4,Crona LLC,314-774-8107,97 Fuller Alley,63104,Missouri,https://elpais.com
c3775aff-ec50-495e-ad56-070cf512f7ce,"Kihn, Ziemann and Lemke",317-930-5953,37 Basil Park,46254,Indiana,http://businesswire.com
7b30bd94-e2d5-4d5f-88d8-be77ad01fcf8,Flatley Inc,772-728-6585,216 Prentice Plaza,34985,Florida,http://census.gov
0f79b04e-d8b9-46c4-a390-365ed1d1f793,"Rau, Morar and Parisian",205-989-6331,377 Merrick Way,35405,Alabama,https://webeden.co.uk
b8c37edf-f12c-4c2a-98a2-33525be30379,Herzog and Sons,313-406-8073,5279 Rigney Terrace,48211,Michigan,https://ihg.com
22fa16e7-1cc2-4707-9e56-d3387d018993,Mayert-Legros,859-448-3628,2 Meadow Vale Circle,40591,Kentucky,https://ftc.gov
c1786abd-a404-4066-81f0-e132295f39a5,Kilback-Hegmann,646-432-5626,7465 Mosinee Center,10165,New York,https://storify.com
9558d6e5-1528-475d-ba0a-01a5782188a6,Cruickshank Group,561-463-5613,79 Mcguire Parkway,33487,Florida,http://un.org
3d5fc4d2-c800-459e-a6ef-bedf4f9476b9,"Tromp, Jenkins and Mosciski",562-569-8578,85861 Bluestem Junction,90840,California,http://ibm.com
bf422c66-3b89-4392-bacb-e42837875f0a,Upton-Lynch,702-760-4132,9 Sage Junction,89155,Nevada,https://oracle.com
dbcb133a-79d3-4520-86f8-671dd4cbf99a,Beier-Wisozk,918-377-4332,161 Linden Hill,74108,Oklahoma,https://skyrock.com
f4d93244-39da-4822-b817-856904241d35,"Kuvalis, Blick and Schmitt",601-650-7816,33202 Commercial Lane,39210,Mississippi,https://typepad.com
0cb83257-1f3b-4556-8974-eff7ee1360d5,"Hartmann, Turcotte and Dare",909-642-3035,979 Dunning Plaza,92424,California,https://google.it
6c950093-dbe9-4999-b6dd-8b875de76465,Kunze-O'Kon,801-455-3953,94603 Victoria Circle,84140,Utah,http://house.gov
e4335225-dcba-4cb3-b741-0b98f4a97327,"D'Amore, Sporer and Schulist",302-118-0282,1 Oxford Way,19897,Delaware,https://cnn.com
8842b9d9-9ad3-4065-a1d9-8926a0093fc5,Hessel-VonRueden,407-338-8515,2021 Onsgard Plaza,32830,Florida,https://baidu.com
8ace852b-611f-4bfb-840c-b7ec9a26f0fb,"Kovacek, Frami and Bode",402-268-3759,18229 Cherokee Park,68505,Nebraska,https://yale.edu
bac28fe7-a1e9-4dff-bf92-d936cac7d533,Schimmel Group,571-858-8959,14 New Castle Plaza,22184,Virginia,https://tripod.com
a9034199-a9ff-4a20-bd6e-316c49a216f3,"Okuneva, Hayes and Anderson",321-489-6136,14269 Jenna Trail,32813,Florida,http://printfriendly.com
72f3213c-5ae3-494d-b425-03f665b73943,"Harvey, Schroeder and Collins",206-526-2162,51041 Oak Valley Circle,98115,Washington,https://ox.ac.uk
ffc9f803-8916-429b-b4ec-8061d1b9a3fd,Padberg-Paucek,515-574-6742,9475 Jay Drive,50393,Iowa,https://twitpic.com
840a914b-e684-4787-9706-ddb0eb223099,Lang Inc,718-315-3786,72672 Eastwood Drive,10454,New York,http://businesswire.com
2aabaab3-af30-4060-9678-649c7c920074,"Lynch, Hyatt and Rohan",415-272-3256,5636 Muir Parkway,94137,California,https://yahoo.co.jp
37ad5a10-1c56-434d-975b-bff27705e345,"Cormier, Treutel and Kuvalis",212-930-4517,1766 Algoma Trail,10019,New York,http://webnode.com
88ee198a-db37-415f-9c49-646dcc3a5d99,"Kautzer, Veum and Reinger",703-559-7069,336 Barnett Road,20195,Virginia,http://skyrock.com
9a2bdb24-bce3-4961-b3cf-0795fa07921c,Pouros and Sons,630-847-3996,42 Scofield Trail,60567,Illinois,https://gnu.org
d9fe7526-9249-4e63-b025-25b7d6b75eb0,Auer LLC,386-305-8064,359 Transport Street,32123,Florida,https://spotify.com
5f1333c8-bcd0-4377-aa9d-e241642c8456,Walker-Schneider,785-917-5335,398 Elgar Terrace,66699,Kansas,http://myspace.com
7642a7e1-31a7-447d-a5ae-ee08ce842b37,"Turcotte, Prosacco and Adams",510-338-4198,2 Kinsman Pass,94660,California,https://sohu.com
14d22bd5-a018-4d60-946b-55990c323e11,Koelpin-Runolfsson,253-556-0664,52189 Iowa Place,98498,Washington,http://irs.gov
fb6f1a30-a32e-4c6e-8556-c92599731c00,Spinka Group,919-165-8035,030 Cambridge Point,27610,North Carolina,https://ed.gov
11350d66-dde5-41ad-b752-90fa855f4ce7,"Boyle, Schinner and Kunze",423-729-8478,396 Crescent Oaks Avenue,37410,Tennessee,http://skyrock.com
c00a2663-ded4-4342-9609-f94cba397d3b,Collier Group,678-914-4073,491 Barnett Way,30096,Georgia,https://sphinn.com
ec6b3b70-6597-41d9-be0c-bf21ecc978d4,"Lockman, Will and Hudson",313-567-3967,9 Katie Road,48267,Michigan,https://admin.ch
7b3e327c-283e-4c35-8d6c-d796f39d221f,Kuphal Inc,413-585-8827,8156 Lakewood Gardens Way,01105,Massachusetts,https://artisteer.com
b0609a5b-6414-4e44-8cc6-dc551e7a5424,"Bahringer, Zieme and Hammes",714-953-1963,183 Ruskin Way,92844,California,https://liveinternet.ru
5f7e3236-de84-4e12-a805-e4c516dfc912,Schamberger-Dicki,520-550-8888,6 Birchwood Lane,85754,Arizona,https://npr.org
0fe79be7-6928-4f2b-afd5-0ed64c076cc0,O'Conner-Price,540-749-9064,2398 Magdeline Parkway,24004,Virginia,https://spotify.com
27b97c40-8a65-4637-878c-8cae79165726,Fritsch-Kirlin,857-902-9941,0804 Manufacturers Point,02163,Massachusetts,http://nyu.edu
56546381-4178-4fb1-b244-1fb12d4c9e4a,Stiedemann Inc,843-776-7593,8228 Kim Place,29505,South Carolina,http://virginia.edu
52e3e8a8-f470-4106-8124-875a4af2c4b7,Jerde LLC,806-556-0729,4 Ridgeway Drive,79105,Texas,http://opera.com
0db2ef30-c950-47b1-9e7b-d621864e6f69,"Ward, Strosin and Hoppe",515-681-6283,5 Shopko Plaza,50330,Iowa,https://princeton.edu
db2cf8b7-1425-49f0-a3f6-e211d42689e7,Wilderman-Schneider,509-912-8862,8 Valley Edge Place,99205,Washington,https://moonfruit.com
c4c8dc11-6943-43d3-9f85-34832e5536aa,"Veum, Hayes and Bartell",312-392-0172,28673 Sutteridge Circle,60663,Illinois,http://tinypic.com
970140ea-1fa2-49fd-81f2-18ba82b036e7,Sipes-Hermann,850-395-5856,634 Merry Court,34665,Florida,https://patch.com
f82f5c9f-6fe5-42aa-b0db-f10b36d3efb2,"Herman, Schuppe and Pfannerstill",509-742-6496,978 Atwood Lane,99210,Washington,https://tmall.com
5b34184a-7262-4b3b-bae8-7b2c4586978f,Lebsack and Sons,509-247-1969,7563 Red Cloud Center,99205,Washington,https://un.org
df41c4df-1390-426c-b812-edc59a1e9e8e,Kerluke and Sons,610-258-3700,06356 Bashford Trail,19605,Pennsylvania,https://wikispaces.com
094da138-9646-4c82-b8eb-205b6addbc2a,Bosco Inc,209-373-2444,43112 Fuller Way,95354,California,http://japanpost.jp
52a3306a-af05-4e49-a2c5-5dbe2fe8cce8,Kilback-Hirthe,904-208-7843,66265 Claremont Point,32209,Florida,https://eepurl.com
88f2d125-e178-401c-8093-a8866b66f43e,McLaughlin-Pfannerstill,215-300-0101,76 Almo Park,19125,Pennsylvania,http://photobucket.com
a658b3d2-9f73-429e-a853-776f2d4f2921,Schroeder-Bauch,253-988-4756,84 Raven Court,98498,Washington,https://reverbnation.com
3954c8ed-db61-4b58-9a82-772590a4a3e1,Schinner-Corkery,917-582-4069,6 Hovde Center,10019,New York,http://vinaora.com
15d39359-650d-47f1-8260-0991078b9beb,Grimes Inc,404-317-5610,2 Dryden Alley,30323,Georgia,http://intel.com
e63ab929-e989-4740-81f5-c69c1771a928,Lindgren-Kihn,918-405-1272,0 Fairfield Alley,74108,Oklahoma,https://cnbc.com
e5c5d48f-bc34-469c-9886-03c5ed101441,Kreiger and Sons,727-528-9098,39 Mendota Trail,33715,Florida,https://theglobeandmail.com
adf19577-c0fd-4ed8-b987-78cf584e0977,Witting-Collier,915-508-4833,8 Lunder Drive,79940,Texas,http://cam.ac.uk
a25400c8-2061-4513-83b9-efc8ed1f4610,Bernier and Sons,919-372-8254,21863 Northport Junction,27710,North Carolina,https://imgur.com
a22c7ed9-58bc-42e2-8d9f-fa34785c08aa,Johnson and Sons,602-473-0865,6342 Luster Lane,85083,Arizona,https://google.com.hk
ffeca3dc-8bd5-42c2-8775-1ea2f41da3fb,Stehr-Koepp,302-701-9484,333 Kropf Avenue,19725,Delaware,http://usatoday.com
5f70820f-17ef-4eef-8169-02e09900ffd1,Mayer-Barton,361-646-8806,5 Victoria Plaza,78470,Texas,http://bbb.org
e7a47388-5b0f-43c1-8327-30f61ed4911f,Kassulke Group,719-320-3362,9 Maple Park,81005,Colorado,https://umich.edu
c445391c-2667-4c80-a9a5-d65d10349e1b,"Carroll, Volkman and Deckow",480-143-2613,05376 Saint Paul Terrace,85210,Arizona,https://icio.us
c9b1472e-bd0a-4070-9e9b-cdead70748de,DuBuque and Sons,312-430-1290,6238 Autumn Leaf Court,60691,Illinois,https://ezinearticles.com
9b88d38b-7805-4ca0-9e08-3d280f0d7c6b,"Legros, Murray and Hoppe",850-256-7067,19 Crowley Pass,32304,Florida,http://dell.com
c2035247-c6fd-455a-826f-77f3f511b630,"Okuneva, Bayer and Ledner",502-988-2497,07 Tony Road,40225,Kentucky,https://squarespace.com
3165795a-49cd-4803-9226-4ef62e3d520d,"Bashirian, Schumm and Ratke",330-429-5451,373 Karstens Hill,44315,Ohio,https://plala.or.jp
edfbbd13-92ec-4e32-8a45-80713a80de3d,Kihn-Bartell,415-564-3330,71062 Schiller Hill,94132,California,http://walmart.com
c240cec4-ac6d-45ad-a539-9aa132143510,Kilback Group,314-866-3244,291 Nevada Park,63143,Missouri,https://technorati.com
7739e401-fc18-4619-8936-a207bcd92143,"Price, Strosin and Conroy",510-191-4068,52828 Spohn Court,94611,California,http://theguardian.com
a50fd9d7-06e2-4a05-98e5-647fb2a97e58,"Corwin, Schinner and Weimann",215-786-2421,9166 Arizona Center,19172,Pennsylvania,http://ycombinator.com
c2ce0993-1835-4584-ae4f-9aef815e75b7,Windler-Weimann,240-683-2552,55668 Mallard Court,20918,Maryland,https://slideshare.net
aeba3cb5-8491-4945-be05-d607323d7517,Deckow-Prohaska,402-859-6389,1 Warner Street,68517,Nebraska,https://cbc.ca
47848c72-4150-4c70-aa01-b824e55639b4,Wisozk-Batz,818-724-1031,34798 Gale Road,91109,California,http://vk.com
896eeb63-9164-4c25-b6c2-ec49739583eb,Willms LLC,337-582-4788,41882 North Place,70505,Louisiana,https://multiply.com
8405feab-1d10-4adb-a681-b9a182bf8096,"Raynor, Weber and Schroeder",601-690-4227,8 Eastlawn Junction,39404,Mississippi,http://booking.com
069ecbb0-5b98-4b4a-8087-2bf9fce0f9b5,Lakin-Upton,251-813-9195,56013 Weeping Birch Circle,36622,Alabama,https://alexa.com
9aab5fbd-f866-4843-894d-1282e1fb2356,"Huel, Berge and Mayert",260-334-0286,1937 Monica Terrace,46896,Indiana,http://goodreads.com
34ca2c32-528a-4625-9157-6a92b7831f1d,Kuhic Group,612-986-0619,2 Mallard Crossing,55436,Minnesota,http://drupal.org
a30b59f4-c9da-4909-b86e-b62c0f62370e,Lockman Group,608-716-0961,81 Springview Hill,53790,Wisconsin,https://ovh.net
2accd89a-2255-4c96-8153-0755f94a9143,"Fisher, Rolfson and McKenzie",727-254-5425,5 Shopko Hill,33710,Florida,https://noaa.gov
6c5e3e2d-2787-46c2-ac45-f87427f25f13,"Fahey, Orn and Osinski",-506-2095,74 Lakeland Avenue,15266,Pennsylvania,http://exblog.jp
f3de5b9c-8578-40da-b3f2-1837b60315aa,Moore-Spencer,615-390-0199,68329 Merrick Plaza,37245,Tennessee,http://infoseek.co.jp
dffeedf0-032e-4590-89b2-9340560030be,Flatley Inc,417-660-1392,477 Jana Junction,65810,Missouri,http://biblegateway.com
52572a46-dd1d-4116-8f91-cbcc66d6f214,McGlynn-Reynolds,425-235-8908,1244 Jana Terrace,98109,Washington,https://g.co
691942e4-9867-4370-8f9c-8e5424708dbd,Turcotte Inc,806-482-6718,767 Sommers Crossing,79105,Texas,https://amazon.co.uk
07d291d4-cf5a-4764-9056-dc8d9cbbfef6,Sporer Inc,917-404-0009,30324 Carberry Center,11355,New York,http://seesaa.net
e640a264-39c4-4c0f-9bf6-d72020ef53a7,Ortiz-Aufderhar,734-507-1509,64 Lighthouse Bay Lane,48242,Michigan,http://microsoft.com
a0904500-d354-45da-af8b-5717d9bc88cc,"Emard, Willms and Kulas",865-538-8501,5 Caliangt Junction,37914,Tennessee,https://netvibes.com
fba8aee8-a76f-4acb-9b37-756741a84c17,Langosh Group,214-515-2729,52 Bartillon Plaza,75049,Texas,https://ca.gov
7c63824c-bf43-4491-9a9c-63411d78d040,Bednar-Haag,406-115-4905,2747 Del Mar Center,59806,Montana,https://list-manage.com
f20c4235-0d57-4a17-b484-87f1fb24fc44,Rau-Gerlach,423-454-5574,52750 Grover Crossing,37405,Tennessee,https://mapquest.com
931e707c-d670-4105-81b3-1721900da2f3,Mosciski-Bartell,312-797-8150,1 Elgar Terrace,60681,Illinois,http://discuz.net
3929a9a7-5b53-4f0f-8c83-489eadb58692,"McKenzie, Murphy and Koch",551-586-3655,352 Division Plaza,07310,New Jersey,https://xing.com
2efa8792-83a8-4231-8d72-e08aeeaa385c,Gibson and Sons,904-550-1057,720 Utah Park,32236,Florida,https://ft.com
0b8b2119-7bd6-4ebb-a9d0-df252520ece2,Cremin Group,913-304-7460,8 Westport Crossing,66276,Kansas,http://usatoday.com
a5fc8205-87d0-4b6b-83dd-5541a56c4cc0,"Jacobson, Gusikowski and Feil",757-126-8472,0 Tony Junction,23705,Virginia,https://jalbum.net
2290c967-923b-41a6-8fdf-1404ec611ba6,Mayert-Wunsch,312-956-6739,164 Goodland Park,60669,Illinois,http://tinyurl.com
c3822127-64b7-4b10-b7f2-fd9f50c7aa6f,"Hudson, Jacobson and Rice",718-983-7125,8286 Sachtjen Alley,11210,New York,http://liveinternet.ru
d3d4e1d6-f054-4c5c-a7a5-92b97155d79e,Lehner-Wyman,865-694-2898,56 Lakewood Gardens Circle,37919,Tennessee,http://hibu.com
bf65e5d1-c366-477c-80ee-9f22ec2db003,"Sauer, Gutmann and Ferry",205-345-1900,23 Moland Parkway,35279,Alabama,http://t-online.de
4aacec78-20a1-4f8b-9e97-9f75ea665aa2,Larkin-Bradtke,518-571-4813,84 Novick Circle,12237,New York,https://tumblr.com
eafb857a-b538-4924-b2aa-ad6103a90b9e,"Pouros, Green and Brown",585-643-3590,9 Twin Pines Center,14619,New York,https://photobucket.com
95a50185-70f6-4fd5-934e-8ef58fb64c0f,Haag-Strosin,706-159-1018,54 Tomscot Place,30905,Georgia,http://nationalgeographic.com
68695794-e775-4048-9e2b-d82b648bab3e,"Parker, Koelpin and Gutkowski",562-290-4501,3910 Moland Court,90005,California,http://facebook.com
3ee83d25-63e0-4ef6-b95b-56e9ac40eacf,O'Hara Group,213-544-6656,2214 Westend Road,90087,California,http://webnode.com
e82da74f-857e-43d0-ad9f-284735c40b91,"Hilll, Bartoletti and Jerde",202-581-5157,798 Schmedeman Lane,20404,District of Columbia,https://sohu.com
c5f2ace1-9f5f-414d-a673-c46298d7f07b,"Renner, Bednar and Fisher",203-492-6542,79239 Amoth Court,06922,Connecticut,https://diigo.com
2040803f-2080-4366-a1f0-248fd513903d,Jerde-Zemlak,806-183-0697,3453 Golden Leaf Drive,79118,Texas,https://slashdot.org
8ca6fb56-80a4-49bc-8df8-b83868a07dbd,Herman Group,540-220-5374,3 Packers Lane,24040,Virginia,http://slideshare.net
8bb8ed2f-e857-4070-8853-50dd8801201f,Bins-Abbott,317-620-5755,26380 Rowland Hill,46231,Indiana,https://china.com.cn
e81c0261-21fb-41aa-854d-75372dcc7be4,Padberg LLC,860-357-8225,26 Brentwood Court,06105,Connecticut,http://ucoz.com
651dca5c-44a5-456a-bf0a-4f0841cbcc5f,Feest LLC,702-170-1700,3927 Scott Terrace,89178,Nevada,http://springer.com
6b5f5bc5-6b0e-4269-9413-5299bc4a17ac,"Green, Mills and Schamberger",202-235-2616,92310 Sutteridge Alley,20067,District of Columbia,https://facebook.com
ae11602f-008f-4342-b0e7-7adbcc3af86b,Reynolds-Schumm,303-862-7934,3 Blue Bill Park Way,80310,Colorado,https://over-blog.com
cb36ae4c-5aa7-4dd7-9cb1-c8c287919b74,Hermann Group,254-164-2701,8 Bay Road,76705,Texas,http://alexa.com
89b29903-1e89-4530-b7ca-923afd723890,Smitham-Koss,804-165-7452,12934 High Crossing Park,23272,Virginia,https://amazon.co.uk
a2433446-c449-40f8-b2f7-a17d85a0b545,Mohr-Dietrich,510-454-6052,34986 Manufacturers Terrace,94605,California,http://ebay.com
d734743a-3074-4adb-bf61-245031dd0a62,Turcotte-Pollich,319-921-8269,91 Eastwood Plaza,50706,Iowa,https://vistaprint.com
c30d892f-609d-4474-8ab2-0a08bc4c6196,Mertz-Fadel,509-782-3042,7 Grim Plaza,98907,Washington,http://pen.io
0995e51c-3d32-4d4b-ab30-684be7994f54,Heller-Corwin,814-848-4151,34501 Farwell Alley,16550,Pennsylvania,http://upenn.edu
ca3d65ef-bf22-49f7-b7d6-f6a555f19048,Morissette Inc,619-223-1098,90795 Vernon Terrace,92196,California,http://zdnet.com
0d05ff5f-ca1d-488a-947a-d1fa3d2a7f13,Hettinger Group,412-331-1985,4 Mitchell Avenue,15255,Pennsylvania,http://indiegogo.com
1858c5a0-b342-4f8c-8b09-f5d34b8346ec,Kuvalis and Sons,919-495-9287,5 Forest Run Center,27610,North Carolina,https://hao123.com
2b465809-d5ed-47f2-9798-ecfcbe8acdda,Okuneva-Spencer,651-982-1109,10681 Milwaukee Junction,55417,Minnesota,http://creativecommons.org
e5911e13-d092-4d6a-9045-3eeeda7b2bef,Lind Group,804-421-9724,9913 Lillian Trail,23203,Virginia,http://cpanel.net
9311f090-12d4-4c69-9f23-025b41bc5622,"Thiel, Koelpin and Okuneva",713-184-7164,00869 Browning Trail,77015,Texas,http://opensource.org
600242ff-6579-4d35-b7df-17ed81335db3,"Crooks, Grant and Bauch",915-463-1806,72094 Roth Road,79984,Texas,https://imgur.com
85b3fbb7-9ff7-42c7-8e52-e0b21c11b99e,Muller-Cole,210-775-2591,324 Forster Park,78250,Texas,http://facebook.com
ed07690b-4a7a-43dc-a767-dc799875a08a,"Cormier, Kling and Mills",254-301-6018,981 Ilene Pass,76796,Texas,https://simplemachines.org
3750e904-9408-46d0-abf0-5612b4f9a3e8,Emmerich LLC,719-540-9094,5863 Troy Street,80935,Colorado,https://dropbox.com
3d0a43ff-2066-4056-8dfd-89ef9d79c878,Padberg LLC,408-181-4883,9 Hermina Center,95173,California,https://google.ru
c3f1384e-2c1d-48af-ab72-aae98df2011b,"Kassulke, Gulgowski and Bogisich",770-455-0425,4 Tomscot Park,31119,Georgia,https://weather.com
a26a9a46-2351-4888-a1a5-8abc901fa639,Mills Inc,336-580-6268,805 Sunfield Park,27150,North Carolina,http://marketwatch.com
ae158b12-a87a-4b17-9efc-ac41dc060043,Harris-Kub,518-667-5881,04 Arrowood Lane,12237,New York,https://hp.com
0f53c668-cda6-4891-a9b7-1e4262f0926a,Smitham-Durgan,971-439-8320,241 Northfield Circle,97312,Oregon,https://nationalgeographic.com
9a8ca0ec-fd08-4d61-909d-6beb42e32436,Brakus-Cronin,281-355-4197,4 Sullivan Trail,77293,Texas,https://webmd.com
1eed3d68-3201-4f68-a0ee-424c19e47a6b,"Wilkinson, Waters and Kautzer",919-405-9707,79243 Merchant Alley,27710,North Carolina,http://nymag.com
edbe66e8-373b-4128-af81-daa4187cc9ac,"Torp, Klein and Price",561-610-6316,702 Mcguire Junction,33416,Florida,https://fc2.com
9d1f1124-049e-4a73-98f0-38525ed12b33,Spinka Group,479-556-5556,7 Upham Court,72916,Arkansas,http://mail.ru
e3b1a44e-6119-493c-bc0c-1ac04e56ad11,Hartmann Group,813-592-6008,7540 Springs Terrace,33633,Florida,http://princeton.edu
78adcbbf-198d-48d1-8b30-106427c0d49d,Rowe and Sons,571-487-6441,576 Delladonna Circle,22217,Virginia,https://google.es
61aed6e3-78ab-44bb-a6e5-48e1c4acb3cd,Kshlerin Inc,215-322-4068,34 Spenser Drive,19178,Pennsylvania,https://gmpg.org
1cbb9ea5-6a6f-442c-ac40-727234e16fab,"Legros, MacGyver and Kuvalis",916-338-2312,04054 American Crossing,94297,California,http://usnews.com
1e1e7b96-88f0-4e70-98d3-1d5eda0ad4bf,Roob Group,915-785-5366,0213 Hayes Park,88584,Texas,https://rakuten.co.jp
81634f26-0b68-486e-bd36-d07f560e8714,Kohler Inc,256-770-9402,7 Spaight Alley,35805,Alabama,https://admin.ch
cedae4c6-4ac5-4393-880c-ef101ea69956,"Cole, Leannon and Blick",202-166-6689,41589 Fordem Court,20551,District of Columbia,http://comsenz.com
02c79649-4587-4f30-8c2a-aab0db938d61,"Rosenbaum, Kuhlman and Zulauf",630-887-8844,8419 Maywood Trail,60567,Illinois,http://imgur.com
e07dbee1-daf1-45fe-a63e-2e7e08f367be,"Wolf, Lesch and Huels",217-639-1391,0 Kedzie Hill,62525,Illinois,http://wikispaces.com
01d5bed8-a705-45bf-a2ea-f6a11cbc0c59,"Parisian, Wiza and Crooks",907-422-2487,9802 Carberry Crossing,99790,Alaska,http://desdev.cn
93f99bd3-6a82-439f-a2e5-d295a3f85ad3,"Bailey, Rosenbaum and Kuphal",765-899-6728,791 Carey Alley,46202,Indiana,https://irs.gov
445fa2aa-3625-45c6-96dd-fe5e83d8068b,Swaniawski and Sons,623-550-8942,7352 Division Street,85025,Arizona,https://usnews.com
d62790e8-4aa2-479c-a8ec-8b5cf2544744,Grimes Inc,915-788-1055,28 Heffernan Avenue,88589,Texas,http://people.com.cn
85d112c8-3bfc-4b36-ab15-abb406e4f234,Goodwin Inc,508-356-4186,518 Grayhawk Junction,02142,Massachusetts,http://jalbum.net
0b3b66ce-14aa-40b7-a5be-304011d883c4,"Bogan, Hauck and Witting",505-713-5793,78711 Moulton Street,87190,New Mexico,http://mlb.com
7c786470-ad45-4cf2-b1d2-8cb296b14ee9,"Crona, Schinner and Schumm",785-353-5105,4781 Lerdahl Lane,66629,Kansas,https://globo.com
1b6c00dd-1099-4c05-a1e0-43da0c448934,Funk-Keeling,202-114-2139,011 Scofield Trail,20046,District of Columbia,https://toplist.cz
60240cca-c251-4b31-b188-bc0bae47448c,"Lubowitz, Farrell and D'Amore",502-214-4644,6 Gale Place,40225,Kentucky,https://163.com
cf1650d4-2767-4441-b345-8bae26c0c35c,Williamson-Gerlach,410-138-3577,147 Charing Cross Drive,21684,Maryland,https://simplemachines.org
a5bad55e-fdcb-4669-9534-08479e75f2ff,Weber-Bergnaum,904-945-7326,565 Loftsgordon Road,32277,Florida,http://sitemeter.com
2dde39d5-6f55-475a-9ff4-869f9418b418,Moore Inc,469-277-6322,831 7th Junction,75251,Texas,http://sohu.com
af50a6f2-4d2d-4c4b-a658-fe39b653e4eb,Daniel-Pfeffer,202-427-3537,7 Hovde Street,20231,District of Columbia,https://csmonitor.com
df6ea425-b023-4480-a406-375491693380,Lemke LLC,202-852-9601,76747 Tennessee Trail,20816,Maryland,https://live.com
c57824ff-0b5b-4a0a-966b-2ff8e607f118,Quitzon LLC,786-280-3882,95 Hanson Trail,33164,Florida,https://photobucket.com
e98949b3-f33a-4b69-970f-5d4b3959f3d9,"Koepp, Davis and Hyatt",907-840-0510,98 Mosinee Pass,99709,Alaska,http://yolasite.com
298c7afc-047e-4475-9234-14c18ec7db55,"Schaefer, Ortiz and Stehr",559-550-3582,67496 Anzinger Place,92640,California,https://scientificamerican.com
b3ff6339-9020-4ebf-8143-e2cdde86d1d6,"Rohan, Nikolaus and Rice",806-640-5072,9 Cody Way,79176,Texas,http://archive.org
2d167198-8108-45ef-a97c-8800528edb5a,Gleichner-Kris,901-196-0135,78 Sullivan Lane,38168,Tennessee,http://nature.com
ae814d53-bf91-4d5c-bd75-463f69ef8c7f,Lubowitz-Strosin,757-378-9833,940 Dakota Drive,23509,Virginia,http://technorati.com
59911cb9-bd04-405e-ba4d-d364b2fe52bf,Schiller Group,912-404-7474,5923 Grayhawk Pass,31422,Georgia,https://washingtonpost.com
349b13ef-0325-4462-84ae-a3af0cf0ac8b,Kautzer and Sons,425-163-8246,19 Di Loreto Street,98104,Washington,http://hc360.com
e86d3ba0-26a4-4753-a178-195a06b70fde,Bernier Group,215-863-8473,48311 Cherokee Drive,19125,Pennsylvania,https://home.pl
373ab0f7-a82e-4cab-96aa-20729d9ddb7d,Gleichner Inc,262-582-8418,036 Thompson Street,53405,Wisconsin,https://cisco.com
dbb866b6-457f-4406-aca2-9da96eea510e,"Reinger, Lehner and D'Amore",209-907-5078,548 Bay Junction,95298,California,https://slate.com
1173819b-9675-4dcd-b26a-fd9dd198e88f,Corkery-Schuppe,203-608-7167,6 Union Trail,06905,Connecticut,https://cam.ac.uk
c5d481ce-4c44-4064-aa57-89327eab2f04,"Grady, Schimmel and Howe",713-367-9095,90 Butternut Terrace,77206,Texas,http://purevolume.com
6fd3f014-6d2c-4b27-b6fc-62a562bf1f55,"Weimann, Lind and Cronin",917-670-5805,9930 Rusk Hill,11236,New York,https://moonfruit.com
2eb920e9-01ed-42a3-a863-5f03a08f9958,Murray-McCullough,561-426-5205,0 Derek Drive,33448,Florida,https://businessinsider.com
dba51759-4e6b-40b4-b0d9-962fb471c08f,Wisoky-Schultz,330-960-5061,14542 Maple Wood Center,44720,Ohio,https://usa.gov
95e8066b-e0b5-4c77-abe3-aa2f0216f10b,Mosciski-O'Reilly,281-327-7480,1 Judy Parkway,77070,Texas,https://free.fr
0dd84c3f-edc6-47b1-b416-80c471f691da,Daugherty-Wilkinson,216-621-4669,4 Dottie Plaza,44185,Ohio,https://bluehost.com
d8111d4a-8976-4c96-83d9-8868934aad67,"Fay, Pouros and Pfannerstill",434-237-1190,2 Riverside Trail,27705,North Carolina,https://ycombinator.com
6984a817-9317-4385-aad5-3314f138d0a7,"Morar, Nikolaus and Hane",717-424-2334,6920 Division Place,17622,Pennsylvania,https://typepad.com
9fbb3be7-1907-42a3-afb5-43db952e2263,"Gutmann, Hessel and Legros",646-993-5945,3134 Thierer Circle,10039,New York,http://clickbank.net
b4c35a4b-9cda-45d5-8395-4c633780c816,McDermott and Sons,503-219-1287,97 Golf Terrace,97206,Oregon,https://163.com
e8bdaad1-e32b-4add-9f76-c89e8add19b3,Jaskolski Inc,805-626-9085,183 Melvin Court,93094,California,https://nyu.edu
5d0d3f48-9b87-4119-800f-006b539f898b,Pagac Inc,434-435-8108,3665 Carpenter Way,22903,Virginia,http://vistaprint.com
67afd281-8502-4d5a-93b9-20c0423fc72a,Oberbrunner LLC,314-787-0766,69163 Northwestern Avenue,63136,Missouri,https://bravesites.com
5d8ceff1-b898-44a4-b923-c6f3faf93735,Purdy Group,803-430-6605,7 Longview Center,29220,South Carolina,http://umn.edu
1f6be2b2-4c13-43c5-a79d-37c9fabaacfe,"Bailey, Mohr and Ward",334-375-0616,8049 Sachtjen Lane,36125,Alabama,https://rambler.ru
a55a4e5a-4633-427d-9162-f7fbebe45e21,Klein-Padberg,727-966-3961,71357 Stang Road,33710,Florida,http://paypal.com
52a2f0b9-2a4f-4731-978f-b24675742b99,Corwin Inc,775-896-4803,8 Schlimgen Lane,89550,Nevada,http://google.de
429577a7-fa10-4f2f-9b92-b9c9938ce68f,Parker-Robel,801-722-1240,2089 Meadow Vale Hill,84135,Utah,http://xrea.com
49afef7c-6dac-46f5-8398-4a4037915491,"Mann, Gislason and Reilly",217-904-7406,52 Forest Run Drive,62723,Illinois,https://privacy.gov.au
21dd63b2-bc09-4a08-9886-e6307d773be0,Schowalter Group,480-427-8068,7 Walton Plaza,85255,Arizona,http://linkedin.com
3da0cb2e-c7b6-43cc-8cd6-d95ecb07d1c4,"Deckow, Simonis and Mohr",651-770-2039,3980 La Follette Place,55123,Minnesota,https://blogtalkradio.com
cbe1855c-8e41-4f2a-9178-16ec18928952,"Ziemann, Bechtelar and Altenwerth",309-662-4881,3 Manley Point,61651,Illinois,https://ucla.edu
e288d2e6-67b8-4008-bc18-edfe384df719,"Konopelski, Jast and Sawayn",862-192-1071,242 Pawling Pass,07544,New Jersey,https://deliciousdays.com
674be221-d950-46e8-8bda-889313164f94,Waelchi-Wunsch,704-795-0422,5270 Manley Terrace,28210,North Carolina,http://example.com
ea77236e-f481-497e-aca6-6478258eaa0b,"Stamm, Anderson and Kassulke",205-170-6847,6 Debra Court,35263,Alabama,http://unc.edu
de4ce0a6-b60c-4f3f-b9fc-8045ecb353f9,Osinski-Cronin,763-883-1934,2112 Macpherson Point,55412,Minnesota,http://storify.com
aaa59726-b428-4f79-b35d-c9f2149f2515,"Lesch, Wunsch and Hagenes",561-688-9767,228 Manitowish Alley,33416,Florida,http://vkontakte.ru
7ba9a619-6a09-4559-9134-753e5c624f47,Grimes-Crona,415-469-0534,79 Tony Alley,94132,California,http://skype.com
df2b0e40-4a8e-42d8-a152-c8ad9ede4570,Crist and Sons,218-131-1819,675 Kropf Alley,55811,Minnesota,http://tamu.edu
8fc7766e-b219-472d-a4e0-8a5d1fc9e696,Greenfelder-Dare,727-667-5120,05 Dexter Avenue,33710,Florida,http://storify.com
76e28d1e-3956-405f-96b4-a909f5c1c5aa,"Pollich, Torphy and Strosin",512-488-5132,38 Ramsey Place,78749,Texas,http://icio.us
efbba493-5521-40e1-b20b-57b6aa547cb9,"Cremin, Kihn and Huel",602-933-4123,6 Monterey Court,85260,Arizona,https://webeden.co.uk
717fed71-2c60-49b0-8349-e7dabf44d06d,Howe-Toy,254-706-6511,9 Oxford Street,76796,Texas,http://bing.com
247edcca-cfd1-498e-8037-ead40589280e,Gorczany and Sons,315-774-7045,248 Merrick Way,13217,New York,http://mashable.com
fff93ca6-de8f-4370-9e29-d6a2d30c11f0,Bergstrom-Haag,210-845-2712,9 Shoshone Park,78215,Texas,http://a8.net
b7bf91f9-24f6-48d4-bd87-2ea730fd484d,Barrows-Hickle,225-364-9803,69 Grim Place,70836,Louisiana,https://php.net
ca47fde4-5d02-4250-8080-be07ddf52c66,Dicki Group,941-970-3441,28167 Eggendart Park,34290,Florida,https://exblog.jp
88877c60-d4f3-4ccf-a103-e3c73d6928d3,Metz-Schmidt,850-806-8882,84 Dunning Parkway,32314,Florida,https://flavors.me
12d52be1-7924-4978-9f91-8b414db3908a,"Rolfson, Champlin and Sauer",405-583-0557,6 American Ash Crossing,73147,Oklahoma,http://dion.ne.jp
b7330e48-520c-4b6f-93ad-ad5eca56e98a,Rodriguez Inc,863-478-9364,733 4th Street,33805,Florida,http://digg.com
132721a0-f434-4ede-8288-7038a31f57bb,Hammes Group,432-948-4515,4779 Crest Line Trail,79710,Texas,http://bbc.co.uk
4122c95c-940b-4a29-8eec-9ae11c219d99,"Hermann, Schimmel and Predovic",281-253-7045,527 Commercial Circle,77346,Texas,https://technorati.com
d446fa79-ba9e-4601-9542-74b1b73e5725,Nader and Sons,915-677-9857,029 Weeping Birch Center,88574,Texas,http://nhs.uk
134c2724-ae5c-405e-8da4-8b3aac8b3e92,Cronin-Johns,360-699-3466,93656 Crest Line Park,98687,Washington,http://addthis.com
30b87c7e-0e46-4d85-a9a0-99df2201369c,Connelly-Kilback,603-396-2827,54 Bellgrove Trail,00214,New Hampshire,http://yelp.com
85c13077-907b-46c8-92f6-a5bc2fb36f07,Franecki-Bosco,309-657-2564,45 Northridge Terrace,61629,Illinois,http://guardian.co.uk
3fd495df-9af3-49e4-a351-c54aa561c26a,"Streich, Towne and Prosacco",603-959-6703,62872 Shasta Drive,03804,New Hampshire,https://youku.com
5cbfd230-2145-4e1d-a614-c47b9dd31786,Schamberger LLC,419-673-2815,0 Beilfuss Plaza,43666,Ohio,https://google.com.au
beaab3a8-620e-4775-9fee-39f818c6a708,Legros-Lang,817-716-2192,6 Westridge Trail,76134,Texas,https://boston.com
81d33d09-7349-401c-b002-8e19647e4e82,Gleason-Dooley,585-711-6948,071 Kinsman Terrace,14646,New York,http://imageshack.us
7d697cc2-3e58-493d-96c9-2a0836c06757,Cartwright LLC,615-276-7246,31 Del Mar Parkway,37240,Tennessee,http://addtoany.com
c9af83ca-842b-42eb-a070-9fcf94409196,"Goyette, Kunde and Herzog",805-521-9013,1170 Calypso Pass,93034,California,https://etsy.com
bb4ef8b5-b183-4c9a-8f01-6cffacf82c44,Spencer and Sons,405-638-7464,074 Carpenter Lane,73167,Oklahoma,http://dedecms.com
69b74578-db51-4975-9fcc-eb2391c3365c,"Rippin, Gulgowski and Towne",845-630-4477,9316 Bowman Park,10606,New York,https://tiny.cc
c6a22580-fdb0-486b-9568-2efb441d5a80,"Kuhn, Beatty and Hermiston",702-798-2184,7 Eliot Circle,93111,California,http://vinaora.com
a94fca1e-126d-4c81-9329-db768dfb3fa4,Ankunding-Feeney,540-350-8691,5964 Garrison Center,24020,Virginia,http://washington.edu
cd1ada51-b41f-47ae-80d2-f7dd99a2ed9d,Cormier Inc,503-216-2980,08 Northfield Park,97296,Oregon,https://yahoo.co.jp
ca7b632b-0567-4bad-aba2-588eacc25cad,Medhurst-Nienow,313-259-1141,626 Schlimgen Street,48267,Michigan,http://usda.gov
d4c5f0c8-374d-4f86-8d03-6be4566b6a27,O'Connell LLC,203-921-9663,3477 Sunnyside Plaza,06726,Connecticut,http://nymag.com
91689837-e337-4976-a7c1-cde48a8e1cd5,"Raynor, Bogan and Kreiger",865-904-4147,73 Porter Circle,37924,Tennessee,http://loc.gov
944b8604-04c4-4162-947a-d2991edfd3b2,MacGyver-Jacobi,718-888-3868,25641 Farragut Center,11236,New York,http://macromedia.com
3f4db3d5-a225-4a4f-8733-6e683729995a,"Tremblay, Walker and Bruen",212-544-4067,1 Mendota Drive,10115,New York,http://prweb.com
fc303d5c-ab83-41cd-ad58-167c363c438c,"Kuhlman, Breitenberg and Lakin",305-557-8337,5227 Nevada Point,33180,Florida,https://marketwatch.com
b74f6740-d419-4922-8888-97413f516fd4,Hilll Inc,213-548-3903,13 Meadow Valley Trail,91411,California,http://booking.com
25687354-9079-4b34-a80d-f194aafdd431,"Blanda, Zulauf and Hackett",859-842-2226,94 Mockingbird Lane,40581,Kentucky,https://google.co.jp
b2e10602-d62b-42db-8605-a656662d6228,Pfannerstill-Shanahan,321-504-7122,0209 Truax Avenue,32919,Florida,http://chronoengine.com
96f0414c-77fe-4b2e-91f8-6b5cd4b76e4c,Parker-Rosenbaum,810-375-0524,050 Oxford Street,48092,Michigan,http://cam.ac.uk
07703542-48e8-41ba-aa0e-95b3797978c0,"Hyatt, Harber and Blick",949-769-1585,5496 Sachtjen Parkway,92619,California,https://ezinearticles.com
9ff7d757-cf4c-413f-83b3-d69e35e8837a,Kreiger Group,281-243-7010,8 Express Way,77085,Texas,http://cbc.ca
d8db1c92-5988-4076-aacc-82717763ee72,Green-Haag,321-184-3013,3674 Killdeer Trail,32825,Florida,https://mlb.com
593a1cb3-f8fd-4f46-beff-4a472edc8c07,Pollich and Sons,802-107-1415,32 Lawn Circle,05609,Vermont,http://wiley.com
e7635a39-fe06-4c35-8cf2-4f59273abb37,"Johnson, Mann and Olson",251-955-2180,397 Morrow Hill,36616,Alabama,http://studiopress.com
51e023db-de68-4f3d-9201-e685788fc048,"Bayer, Keebler and Robel",775-666-2396,748 Pankratz Street,89436,Nevada,https://dyndns.org
32410567-dd56-43de-8ef7-6a314d8fb67e,Mitchell-Simonis,817-853-6482,4 Clarendon Park,76147,Texas,https://vimeo.com
dd47e353-5120-4b4a-b458-5ec65f1e0313,Kuhlman-Bogisich,312-939-3259,8696 Golf Alley,60609,Illinois,http://exblog.jp
02f52abb-5843-452f-9f04-81a85c4a89f7,"Olson, Koch and Hodkiewicz",205-745-3709,512 Armistice Plaza,35285,Alabama,http://nationalgeographic.com
3dd8c4c7-f1cd-489e-bb26-d52ac1d5a414,"Monahan, Gottlieb and Hermiston",773-327-6458,995 Swallow Park,60614,Illinois,https://cdc.gov
4c6e3fea-5c60-4812-9517-f13866f416fe,Will LLC,323-771-0721,78 Westridge Hill,90060,California,http://prlog.org
b2f349ce-144d-407a-8dd3-d05d04ee3a7c,"Murphy, Vandervort and Dare",213-318-0923,203 Springview Crossing,90081,California,https://pen.io
e9e539a1-a606-47e1-9e0f-2abeed03d7c1,Koepp-Cummerata,972-846-9529,76 Vahlen Terrace,75241,Texas,http://blogger.com
b788d526-b560-4865-888c-5aec76ca3645,Reynolds and Sons,614-763-1504,9 Oriole Plaza,43268,Ohio,http://163.com
c8b372e9-3c0b-47f9-affe-6d0b6f7e1e48,Anderson-Schmidt,979-493-5298,566 La Follette Lane,77844,Texas,http://google.com.br
5e0e9b45-9523-4278-ace6-56f1dc25a7b6,Muller LLC,702-937-6380,72869 Vidon Crossing,89110,Nevada,https://list-manage.com
4d5e489b-5da3-4c3a-8a09-ec7494144ceb,Macejkovic Group,214-730-9559,698 Pleasure Park,75367,Texas,http://unc.edu
3d537e9d-cbff-4fbf-81b3-01c2fc238390,Tremblay-Williamson,973-605-6809,200 Golf Course Street,07505,New Jersey,http://hexun.com
cc754a3a-8d1f-4b5f-9f17-ea13916c5623,Romaguera and Sons,301-710-4807,8780 Bay Way,20784,Maryland,http://naver.com
78bde113-eb97-468e-9155-57054ffbcef6,"Shanahan, Hahn and Weber",540-308-9270,85 Comanche Junction,24034,Virginia,https://walmart.com
6666808e-22d8-4e1b-ab7d-b85150509d31,Kuvalis Inc,314-786-4874,5734 Bashford Lane,63196,Missouri,http://walmart.com
af286199-3b38-4545-8676-c4c644a00732,"Borer, Dibbert and Pacocha",601-838-7977,747 Bartelt Lane,39404,Mississippi,http://spotify.com
5b32e679-5f83-4e77-aacd-f808f91b18d4,"Schmeler, Howe and Nader",213-889-8149,5 Mallory Junction,90050,California,https://pcworld.com
21f0799e-a663-4022-ba0f-55364fb2af28,"Dach, Prosacco and Jenkins",864-765-4369,47 Nelson Lane,29625,South Carolina,https://discuz.net
4ac584da-b2b1-40e8-b165-c7fc607026ed,Howell-Jones,267-322-3369,20013 Carpenter Center,19146,Pennsylvania,https://myspace.com
6f0e04e2-90ca-462e-af51-6ff2ec990b96,Wiegand Inc,812-796-0198,25 Declaration Pass,47719,Indiana,http://linkedin.com
d303ea17-036a-40a8-8221-2cef96f8d7fd,Adams and Sons,509-196-0502,55 Walton Lane,98907,Washington,http://usnews.com
53611f18-f805-489c-89dd-fc2d942bedd8,Collins LLC,215-455-7430,8 Ludington Street,19184,Pennsylvania,https://nasa.gov
4b6e85af-a834-443d-adde-4a5d5418d002,"MacGyver, Bartell and Schmeler",508-572-3503,729 Hooker Hill,01654,Massachusetts,https://live.com
9ea70ecf-1182-48bf-9ae5-659b9796268a,"Adams, Romaguera and Conroy",757-261-0396,689 Dakota Terrace,23551,Virginia,https://infoseek.co.jp
16ea112b-d8c6-4a2e-a084-1f4a552c3c9e,Greenfelder and Sons,256-415-7043,9 Cordelia Avenue,35905,Alabama,http://sogou.com
88b58741-6a3c-4ab6-8a7e-4d883389cd96,Heidenreich and Sons,254-892-5271,68 Loeprich Lane,76505,Texas,http://amazonaws.com
d912f871-504c-44a9-adca-4137e7e4c900,Orn-Effertz,408-336-9492,3 East Place,95123,California,http://sina.com.cn
3721599d-6159-408d-a980-a1554723fd38,Spinka LLC,217-281-8179,2 Parkside Trail,62525,Illinois,http://webnode.com
969ba7d8-f991-4fbc-ab90-64ef3bfbc65e,"Runolfsdottir, Paucek and Towne",540-732-1212,29951 Ryan Terrace,24014,Virginia,http://tripod.com
8ff3a8dc-a33f-4506-b36f-062a6691c89d,"Hoeger, Kirlin and Gleason",912-200-6510,8509 Farmco Hill,31416,Georgia,http://addtoany.com
c3c8584d-bc35-40ff-8db1-a2155813ca44,Wyman Group,804-597-0780,48386 Hagan Terrace,23228,Virginia,https://ifeng.com
a5e03fd0-c61b-4747-8c24-888891ab00b9,Bins-Medhurst,205-756-5782,891 Esker Street,35295,Alabama,http://harvard.edu
66936370-5121-44a5-91c6-f8c7f8785b50,Huel Group,202-551-4016,3 Messerschmidt Parkway,20540,District of Columbia,https://google.pl
d35d1643-e8cc-46fa-9a99-6adf4f3047f1,Watsica-Schroeder,651-441-3842,33 Northland Road,55166,Minnesota,http://ft.com
23fbccc3-6049-41ce-afdd-3a17a58c3c0f,"Prohaska, Hayes and Lueilwitz",760-661-5214,48 Green Center,92056,California,https://huffingtonpost.com
bd896c4f-1033-4677-973b-af073cc78513,Bergnaum-Stiedemann,323-521-5893,2 Melody Junction,90076,California,http://so-net.ne.jp
673548cf-d0ce-4760-9caa-eec33834f3b7,"Pouros, Kub and Kassulke",512-736-1676,6625 Green Ridge Alley,78783,Texas,https://globo.com
640c0349-8b21-4254-bb67-63f700739bd2,Jast-Hodkiewicz,302-840-2589,47856 Bultman Point,19714,Delaware,https://ihg.com
2d8db8e4-0f9a-498d-bed0-a0cde9db369c,Bode LLC,202-171-1981,970 Northfield Place,20580,District of Columbia,https://acquirethisname.com
f6740fc3-f926-43eb-be4e-352dfcec9f92,Kerluke-Rutherford,404-136-7517,97080 Village Green Parkway,30386,Georgia,http://ehow.com
f76cc573-f4f4-4ebd-8652-4c4b72c4b3c2,Sipes-Veum,202-502-3598,343 Waywood Center,56944,District of Columbia,http://discuz.net
0702e7ad-b588-45ca-89ae-636f3c089e5d,Hahn-Adams,615-443-4316,8 Jenna Plaza,37250,Tennessee,https://123-reg.co.uk
5565cd66-45d2-4fa1-8114-4147ac4f8ca5,"Ebert, Koch and Vandervort",970-919-9119,0 Jana Avenue,81505,Colorado,https://icio.us
d6846b4f-8b01-44d4-a09f-abf884f05ee8,Lindgren Inc,562-187-9703,12013 Bayside Parkway,90847,California,http://ucla.edu
061fa790-a57e-4ada-92f1-02bf289f8e44,Gutkowski-Breitenberg,702-464-6579,3844 Marcy Avenue,89125,Nevada,https://mysql.com
ff6bab4d-7aea-4ba0-8136-bb1cc1ba36ff,Romaguera-Morar,713-303-8065,6926 Village Green Plaza,77065,Texas,http://smh.com.au
5b8060ee-af71-416b-b2c8-9e41d2adbb73,"Quitzon, Bins and Rolfson",573-607-1432,94141 Anderson Court,65211,Missouri,http://hostgator.com
aa7a59d4-d5cb-4857-87f4-091e88270bfb,Gusikowski-Medhurst,561-906-6374,059 Sunfield Crossing,33467,Florida,https://marketwatch.com
df3f3a41-ee79-4141-9871-8631487b01f0,"Shanahan, Gutmann and Rodriguez",215-896-4936,72 Eliot Court,19109,Pennsylvania,https://cyberchimps.com
3d42764e-8b20-4c07-89bc-09ec555285bd,Erdman and Sons,763-113-2530,02845 Myrtle Avenue,55565,Minnesota,http://cmu.edu
16001894-f8ed-4d4d-820b-7e91a6d74d33,Heller-Heller,412-580-9961,42 Shoshone Trail,15134,Pennsylvania,https://sciencedirect.com
d84d9f4f-15eb-4bf7-856f-813816acc1f1,Quigley-Braun,205-375-6780,2210 Carpenter Hill,35220,Alabama,https://instagram.com
c157f71f-e0ba-4b29-a9f5-44a65797a7b3,"Prosacco, Daugherty and Wunsch",309-717-1802,826 Main Plaza,61709,Illinois,https://addtoany.com
1403117c-deb8-4bfc-a4c0-645af5bbf6f6,Mayer-Davis,404-532-9677,01 Grayhawk Junction,30328,Georgia,http://ask.com
4d6946a7-62c5-4cc5-9070-084434617113,Aufderhar-Pfeffer,205-412-6787,9168 Mosinee Place,35225,Alabama,https://unesco.org
de157fe7-6004-4eff-90c8-eae2b6ac5661,Abbott Group,903-728-7202,1941 Cody Circle,75799,Texas,https://sina.com.cn
55a3e9d1-2f44-4510-80ba-9a6904f2698f,"Harvey, Schoen and Robel",813-301-1601,4 Steensland Point,33673,Florida,https://nba.com
4c767242-f83f-45a2-a2fe-8cf3a0a3a711,Harber LLC,303-393-6062,1 Bartillon Plaza,80044,Colorado,https://live.com
023ec276-dd9d-4cbc-989f-912f32a92c5d,Ziemann and Sons,201-595-9291,777 Moose Lane,07522,New Jersey,https://businesswire.com
4f4b9296-43cf-41b7-bfe3-d2d45dbf48c2,Bernhard-Weber,203-894-3169,875 Dapin Drive,06606,Connecticut,https://forbes.com
cf3e440c-c392-425b-89ce-fea748cef185,Blick-Pagac,309-100-2292,9783 Heffernan Plaza,61651,Illinois,http://moonfruit.com
d2a4732d-21af-4bb5-be88-5ddb4544ee98,"Friesen, Oberbrunner and Wintheiser",786-858-6604,05 Victoria Road,33147,Florida,https://wunderground.com
76453750-cc16-4191-a62b-cfba134b398b,Bartell Group,336-213-8238,5 Mccormick Way,27404,North Carolina,http://sitemeter.com
4ba721d2-7737-4f70-8707-207c289c490e,Swift-Green,626-931-2472,23 Superior Circle,91125,California,http://toplist.cz
df99e61b-e1e2-47a3-94ed-2c3f4e1b74f2,Effertz Inc,323-224-8316,63 Larry Parkway,91103,California,http://weibo.com
2175491d-36ea-4dd6-862d-63225ee11a81,Pouros-O'Connell,858-539-6344,748 Fuller Street,92121,California,http://aboutads.info
20f62410-839c-4637-8d2e-fd203473b677,"Hilpert, Nicolas and Dickinson",571-413-6702,014 Orin Road,22205,Virginia,https://joomla.org
9045ddd5-7dfe-49cf-b5a7-3536afa803c6,Beier-Skiles,407-263-6083,7326 Ridge Oak Point,32830,Florida,https://aboutads.info
e02e1a50-3e4c-4391-99ad-5f6a6d355fae,"Runolfsdottir, Smith and Smith",785-255-3377,9 Butterfield Drive,66622,Kansas,https://blogspot.com
56abeab1-f72d-4fe8-ba0e-34cdedaf9d26,Waters Inc,949-465-5496,7566 Burning Wood Terrace,92612,California,http://infoseek.co.jp
a7c9022f-5422-47ff-bd47-94c409e049d1,Koch-Bergnaum,260-866-2342,87953 1st Place,46805,Indiana,https://geocities.com
5f220bf7-8cf1-4559-b6ab-a128c106bc5f,"Bosco, Reilly and Jacobi",314-186-7474,71563 Nancy Drive,63136,Missouri,http://wordpress.org
e75e28a8-2a76-47fd-8bed-350e3f4b3632,"Ondricka, Daniel and Rau",469-175-5195,6704 3rd Point,75210,Texas,https://indiegogo.com
2c5c4798-14a5-43be-817c-2a2c343c8625,Schuppe-Frami,518-608-8722,9401 Warrior Crossing,12255,New York,http://cmu.edu
0d6b7974-afc0-4b13-ac83-3dd2f7fd3a6b,"Fahey, Schumm and Schimmel",713-982-4511,036 Schiller Circle,77085,Texas,https://reddit.com
f80440ac-a390-4f47-b824-28ef410b5cea,Mertz Group,469-353-8214,6 Miller Circle,75342,Texas,http://mediafire.com
982d405b-c291-42ad-9836-a7d297059fa9,"Marquardt, Schumm and Stiedemann",916-374-1051,7400 Grover Point,94237,California,https://ibm.com
96554f6e-c6bf-4bc8-93cf-a7fbf6eb0012,"Abbott, Bauch and Herzog",404-779-0468,1 Hermina Pass,31106,Georgia,http://aboutads.info
19746205-38fa-45ad-baae-b87e47305dd9,Senger LLC,209-501-8395,36 Dennis Point,95210,California,https://nbcnews.com
fde43ddb-aa49-4880-be1a-eedf33c95310,McKenzie-Weimann,212-627-7332,531 Sauthoff Parkway,10292,New York,https://netscape.com
79f02c23-4475-4a5e-a6f6-72b85d9b6e93,Brakus Group,209-757-6708,92 Chinook Way,93721,California,https://craigslist.org
abaa7eb6-ba7c-451e-8c0e-c2db9ae75845,Rowe-Terry,330-633-1841,207 Debra Crossing,44555,Ohio,http://diigo.com
e0d8e900-bd4a-4047-8c2c-c1861a0fc337,"Gislason, Lebsack and Hayes",408-754-3571,1 Express Crossing,95173,California,http://wufoo.com
4fefeaf1-208e-4b41-916a-22e0b8010e90,Boehm Inc,408-515-4875,26650 Calypso Way,95133,California,https://delicious.com
9d9061bf-307e-4ef5-b969-612b67822ab7,"Moen, Lowe and Rice",407-136-7875,504 Bashford Lane,32803,Florida,http://sitemeter.com
e494ff76-9060-4bbb-a797-6c14053700b5,"Olson, Pouros and Feest",916-462-7627,32290 Truax Terrace,94286,California,https://rambler.ru
37732dc8-d8f7-4bc8-a1cf-182964857fc9,"Torp, Huel and Brown",704-331-1193,806 Colorado Crossing,28278,North Carolina,http://nyu.edu
d22f229a-977d-4d6d-93ab-a33fc0e589c5,Medhurst LLC,601-556-2852,0998 Fremont Parkway,39305,Mississippi,https://dell.com
e10985a0-d3e3-41a8-a967-80b8c56fa226,Pagac-McLaughlin,713-913-9864,4455 Dwight Point,77240,Texas,http://bloglines.com
ae0f5e3c-532a-473b-a057-47daa6760ba8,Reinger-Kub,661-434-7447,913 Sunfield Circle,93381,California,http://rediff.com
ff2dbdf3-6850-4230-ac64-40e8e6c03484,Aufderhar Group,816-437-5492,61 Spohn Place,64144,Missouri,https://comcast.net
6c46e079-1368-49f6-9f21-5b4e4dc2172f,Conroy-Kuhlman,812-991-7506,102 Maple Street,47725,Indiana,https://nytimes.com
521b0337-dfc6-4da5-b8f3-30fe93c6106a,Rath and Sons,617-271-2551,8435 Milwaukee Lane,02298,Massachusetts,http://jalbum.net
81037207-041b-488b-b779-7445980ce60e,Gleason-Altenwerth,412-786-2567,94900 Longview Center,15215,Pennsylvania,https://sbwire.com
7343d352-4b54-4d67-9ef1-d107629cd5c5,"Green, Yundt and Boyer",952-613-5445,8946 Stang Parkway,55551,Minnesota,http://themeforest.net
6c86c6ab-ad5f-48d9-8b15-19d6d30da7d5,Koch-Bruen,619-146-5687,1018 Larry Pass,92186,California,https://businessweek.com
ce9ef317-5815-456e-aa30-7d1cc2131df0,Mante LLC,205-225-1112,1908 West Place,35244,Alabama,https://wikispaces.com
6cb7353f-f4e0-408f-8569-b6c4232d0187,"McClure, Luettgen and Donnelly",801-876-8367,979 Westridge Junction,84093,Utah,http://china.com.cn
9d4781bc-ab51-4845-bbc8-f8eea28d6568,"Thiel, Homenick and Hammes",309-602-1812,94 Hagan Place,60158,Illinois,http://is.gd
0f805cc0-793a-4c87-bf87-2c83831f1037,Hansen Inc,212-386-4056,79 Pankratz Junction,10249,New York,https://nba.com
854284d6-ff87-45f3-b4eb-ae73f91425d6,"Padberg, Leannon and Deckow",918-951-8317,5 Thompson Parkway,74193,Oklahoma,https://berkeley.edu
d5c0b834-f4fb-43bd-be83-10d219890cd2,Welch LLC,915-802-7738,924 Heffernan Road,79911,Texas,https://hibu.com
3297f9c2-998e-4573-9000-3fe234ae3cc1,"Emard, Smith and Goyette",845-507-7712,30 Golden Leaf Center,10606,New York,https://miibeian.gov.cn
58a30b3c-8be4-4ffe-b360-43ef81e05f79,Torp-Rohan,559-551-8860,8113 Riverside Point,93709,California,http://tripadvisor.com
4379f190-8197-454a-823c-7bafd4901be5,Jones-Huel,954-913-6525,7 Gerald Court,33142,Florida,https://google.fr
5f9c5604-e7d2-40ac-a52b-d2884c2973a6,"Nikolaus, Farrell and Donnelly",434-543-1762,6 Riverside Center,24515,Virginia,http://biglobe.ne.jp
f1b2ef1c-ce29-492b-9ad4-67b2cdc27e29,"Emmerich, Sanford and Lindgren",916-729-8656,329 Grover Crossing,94230,California,http://wikimedia.org
72a47c01-eea9-4e22-a67d-2a64f3e8961d,"Stiedemann, Cole and Von",615-369-0537,1489 Fieldstone Lane,37131,Tennessee,https://artisteer.com
a0272f34-8f37-4286-b42e-504f6dc305e6,"DuBuque, Runte and Hessel",310-962-1028,5415 Kings Street,90410,California,https://canalblog.com
004a1484-21e6-40eb-9b45-ab0572f08eb6,Schowalter Group,515-434-5567,95764 Bluejay Drive,50330,Iowa,https://ifeng.com
122bf5ff-7ce5-4c38-87bb-3316e101a90b,"Shanahan, O'Hara and Schoen",713-448-5418,98713 Haas Crossing,77075,Texas,https://aboutads.info
67b8ddcf-3ed0-4dd5-9c1b-e20abc896537,Zemlak-Nicolas,910-468-5125,21786 Truax Road,28314,North Carolina,https://google.cn
9a1db8bb-2e72-4304-be96-cac880d26516,"Crist, Miller and Mraz",208-653-0716,0 Lindbergh Street,83757,Idaho,https://slate.com
666d957a-44ca-4815-8086-a0dfb728202d,Beier and Sons,916-481-7701,30 Bay Park,94230,California,https://goo.ne.jp
c86ccc5f-3388-40a4-aeea-ca003d312b6a,Moen and Sons,509-153-8030,410 Village Green Parkway,99252,Washington,https://ibm.com
a4e5e408-4670-47b6-b9e3-3731fea059e2,Hansen Inc,517-924-3458,672 Stone Corner Center,49048,Michigan,http://yellowpages.com
25b82668-734e-47a4-a091-4fec39b8d9b6,"Flatley, Stracke and Ward",630-865-6384,5142 Truax Alley,60641,Illinois,http://trellian.com
6076db35-5027-4962-9fbe-0ccb6869ce2e,Langworth-Torp,530-828-1355,4 Chinook Crossing,96154,California,http://wunderground.com
7800f45e-58f9-42e8-a5ca-7bb1f7fed0f6,"Walsh, Runolfsdottir and Sporer",651-432-6917,5 Melrose Road,55114,Minnesota,https://skyrock.com
433b47a0-03d9-4418-9c33-c4f243655934,"Koepp, Block and Flatley",303-221-9015,1235 Darwin Street,80126,Colorado,http://csmonitor.com
a3776123-977a-4181-b62f-d1ec121e136c,"Howell, Weissnat and Dach",843-736-1733,34 Loeprich Crossing,29416,South Carolina,https://nhs.uk
3d59f5fc-4ee5-4ae8-bb7a-53e0c780b514,Carter-Labadie,205-274-6988,60 Luster Circle,35295,Alabama,https://japanpost.jp
1d22054b-c431-4e0e-9cdb-1500cbcc0456,"MacGyver, Renner and Thompson",850-831-2581,7297 South Plaza,32309,Florida,http://whitehouse.gov
85e79189-6fdb-432c-ac2d-c952ebc32aff,Botsford and Sons,714-476-1601,68 Clarendon Drive,92612,California,http://gravatar.com
aa2301f5-a8d6-45b0-921b-be2fa52a5aa0,Treutel-Sipes,503-932-5115,59290 Sundown Alley,97306,Oregon,https://google.ca
b0d1b3bf-dc20-4228-8703-0f7046e99700,"Gislason, Crona and Kub",303-466-0256,866 Northland Court,80279,Colorado,http://mapquest.com
5bd17017-c32b-4940-8a17-13e5750992f1,Bernhard-Ryan,540-614-4877,92 Sundown Road,22405,Virginia,https://google.fr
eee60463-df1b-4d4c-8a27-b13f36722efd,"Stroman, Brekke and Wisozk",305-217-0690,37 Erie Way,33961,Florida,https://ucoz.ru
637a5bb9-01b1-4996-878a-d2bc2df2d1a2,Koch and Sons,214-462-1775,79 Scoville Trail,75277,Texas,http://pinterest.com
e1906c2d-1e3c-40db-b422-d620e7f8307c,Abshire-Kihn,330-952-6131,9099 Mayfield Alley,44321,Ohio,https://aol.com
abf2dfb6-b3cb-4841-912c-b60cb8472f79,"Conn, Mitchell and Bergstrom",731-360-1658,1 Warrior Street,38308,Tennessee,https://abc.net.au
b70607a5-5708-476f-aaf1-1510febe6ff3,"Grimes, Stokes and Douglas",704-211-9405,18147 John Wall Point,28242,North Carolina,https://quantcast.com
7d231625-ab13-4ad9-a6dd-82e284dba5be,Beier LLC,813-676-0104,371 Southridge Parkway,33543,Florida,http://berkeley.edu
c11b502c-dd5d-4735-b07b-901c42e58118,"Runte, Leffler and Crooks",602-522-6443,01 Di Loreto Way,85067,Arizona,http://thetimes.co.uk
5b8b87da-b08f-4310-bea4-61c1093e581d,Johnson-Kerluke,952-973-8901,6 Lakewood Junction,55436,Minnesota,https://constantcontact.com
02d3c719-7d75-446d-9f7d-3cdff926f397,Kovacek LLC,912-823-5208,388 Oak Crossing,31405,Georgia,https://yelp.com
edb9d7b8-8fb3-4e76-a140-6d53a80351ea,"Lemke, Torphy and Bauch",612-516-5571,747 Katie Alley,55480,Minnesota,http://ucsd.edu
35f8d594-694c-4afc-b827-6629b9083569,Bergstrom-Ruecker,515-722-8861,341 Sachtjen Circle,50310,Iowa,https://squarespace.com
764cfbe3-f333-40ab-8a60-6e6965f498d0,Funk Group,210-242-8811,1 Eagan Pass,78285,Texas,https://typepad.com
4a06cb06-97a8-4626-aecf-03445d5750e9,Morissette and Sons,916-541-8036,2133 Pankratz Court,94250,California,http://nydailynews.com
806cd01e-73aa-434b-8f05-aa58fb499ead,"Satterfield, Ullrich and Fadel",724-402-1023,3 Tony Park,15235,Pennsylvania,https://simplemachines.org
6ebdca28-84b8-4e27-9a95-9464ff167285,Haag and Sons,864-851-1638,16 Doe Crossing Drive,29605,South Carolina,http://intel.com
c46073d4-e779-4014-8adf-76e0a928d3f5,"Rodriguez, Mueller and Reilly",214-710-2385,57569 Little Fleur Point,75260,Texas,http://hostgator.com
71d5a7be-08eb-4632-acae-ace0b387fd8b,Roberts-Williamson,251-212-0999,985 6th Point,36610,Alabama,http://miitbeian.gov.cn
957afdfc-ff81-41bd-9dab-51c91448f1b9,Leffler-Hartmann,432-398-9542,7 Hudson Parkway,79769,Texas,http://issuu.com
79dc1340-6921-40f3-861d-cf50c01f6c7d,Reinger-Boyer,202-566-8431,82 Chinook Parkway,20404,District of Columbia,http://typepad.com
406657fd-2f95-4dc1-b7d5-39ef7cb1ec59,"Volkman, Gottlieb and Davis",812-750-6594,7 Lotheville Alley,47134,Indiana,https://symantec.com
e48d3188-479e-4ce1-8048-cd3b1ae12bf2,"Christiansen, Rempel and Hand",801-179-7596,9 Sunbrook Road,84403,Utah,https://state.tx.us
3652af0e-dc3a-469a-90c2-39687bd3bf42,Turner-Bayer,316-674-6064,737 Mendota Pass,67215,Kansas,https://friendfeed.com
d7a42449-14be-4fef-9f44-68ee9dccbc05,Zulauf-Larkin,404-495-3977,2642 Pond Parkway,30306,Georgia,https://google.com
b50c25e7-40d5-418f-a666-ce720d4dfdb0,"Parisian, Rath and Waters",203-385-3455,6873 High Crossing Pass,06922,Connecticut,http://wisc.edu
79ebba70-147f-486d-ac57-18f8c3ced1c6,"Bechtelar, Grant and Ferry",318-301-6633,00 Summer Ridge Hill,71161,Louisiana,http://so-net.ne.jp
213ee778-a151-428e-a494-910e7b6d0045,Leannon-Smith,253-184-5611,17126 Doe Crossing Avenue,98417,Washington,http://ustream.tv
726abb08-391a-4c2a-83cf-bb7ec1389230,Brakus-Bartoletti,720-898-0357,034 Grayhawk Court,80249,Colorado,http://msn.com
442c8471-8e7a-4114-9bc0-635126628cf3,Spencer-Stanton,713-488-5917,492 Meadow Ridge Parkway,77223,Texas,https://gmpg.org
86a49599-a5c1-4ca3-a171-e5ced8ac7dc4,Braun-McLaughlin,317-624-9859,6 Killdeer Plaza,46231,Indiana,https://tumblr.com
8e4464ad-0e34-40df-ace3-ce7a4b4243c7,Cummerata LLC,248-453-2700,6158 Anzinger Point,48335,Michigan,http://elegantthemes.com
a2b2d64d-e2d2-4cbc-97ee-d52c608aaf5a,"Harber, Cummerata and Mayer",915-602-6490,6104 West Crossing,88589,Texas,https://nifty.com
feca2a88-5446-4863-99a8-77edc3286f26,"Rowe, Daniel and Wiegand",205-707-0700,38068 Dovetail Park,35220,Alabama,http://hhs.gov
c1fba9e7-eab9-4b90-804f-43c614a982f4,Hamill-Sanford,516-354-9103,4 Graceland Junction,11044,New York,https://census.gov
8e6d280a-e50d-44c1-8555-8ae9b4635a4c,Pagac and Sons,336-141-2470,0001 Hoard Center,27409,North Carolina,http://reddit.com
84f751e4-f838-4f29-b245-ba13a66d8238,Ward Inc,757-956-0979,88783 Westend Point,23612,Virginia,http://economist.com
d332618c-53ba-4b81-9277-2ef0e7cce5ab,Sanford-Wuckert,915-306-6029,50889 Northfield Parkway,79928,Texas,https://comsenz.com
494eb5c6-dbc8-4ba5-a01a-ace77ef6131f,Hayes-Goldner,334-400-2406,04483 Dryden Road,36177,Alabama,https://opensource.org
cbbc1f4b-868e-47ca-a028-a616cea00fd4,Windler and Sons,815-239-4060,87986 Straubel Point,61110,Illinois,http://usda.gov
1c67f869-81d0-4f2a-a4c1-afd37c9abc0c,Zboncak-Ferry,304-547-9049,45256 Elka Drive,25709,West Virginia,https://mashable.com
99271bcc-7cc0-47b4-a8f1-26ed95a5923d,Kovacek Inc,612-151-7208,16 American Ash Parkway,55402,Minnesota,https://bravesites.com
ae17212f-b43e-4e95-9b2b-475a5508fcdb,Bogan and Sons,850-207-7458,579 Maple Wood Court,32575,Florida,http://illinois.edu
19035a7a-6e45-4c71-9635-28261e5d92f8,Aufderhar-Ledner,301-557-4195,121 Gale Park,21405,Maryland,http://disqus.com
0eff539f-6d18-4e6f-99e3-ffb1b7332935,Waters and Sons,410-812-3668,75 Talisman Lane,21211,Maryland,http://ucoz.ru
aaa78a63-c3b3-47b2-a9d9-8d055339a63d,Prohaska-Stehr,936-107-8002,0 7th Street,77305,Texas,https://i2i.jp
92be44bf-38d8-4ddb-86e4-3df87d80f175,Champlin Inc,805-689-8121,4859 Schiller Place,93094,California,http://opera.com
b916891e-acef-4a2e-b0a7-fe59e3ce3847,Collier Group,781-421-2740,8549 Stang Plaza,02283,Massachusetts,http://parallels.com
da0b2163-6d1b-42fc-9111-5dc50dddfa97,Robel Inc,810-272-9732,448 Bobwhite Avenue,48211,Michigan,https://techcrunch.com
e2b28991-7c07-43bf-82fb-f9e11fe0289c,Fahey-Weber,540-140-6010,06 Brown Court,24034,Virginia,http://zdnet.com
23b9f819-f97d-4cea-8f8a-55a4471601ab,Schmeler LLC,312-516-2362,88136 Hoepker Junction,60609,Illinois,https://imageshack.us
48d10bed-0e5f-4e5b-bda7-9f775d195003,Goldner Group,203-803-7326,14 Melody Park,06825,Connecticut,https://taobao.com
e4b1f5ae-21ff-4a8a-bfde-8a0c0a3e4da9,"Lynch, Ankunding and Dickinson",206-827-8419,9793 Anniversary Alley,98166,Washington,http://marketwatch.com
d08e3135-c95c-4b7f-91b3-3ab41d25f83c,Bradtke Group,501-119-9884,42770 Spaight Crossing,72222,Arkansas,https://mail.ru
accb2bc0-f0e0-4c06-b864-775268be1058,"Jaskolski, Homenick and Bins",716-566-2653,07 Carpenter Court,14205,New York,https://unicef.org
a67b4125-28b6-433b-b5db-35f60c73cf03,"Dickinson, Tremblay and Grimes",508-693-6865,90 Mandrake Parkway,01654,Massachusetts,https://noaa.gov
34be9312-270e-4d67-9def-fc730c3cfcce,Kunde LLC,405-186-7101,932 Upham Terrace,73152,Oklahoma,https://example.com
45c6afa5-b2e7-4068-b702-29a3c3a90bc3,Swaniawski-Hoppe,717-783-8630,338 Buena Vista Lane,17105,Pennsylvania,http://vimeo.com
2bb9b96a-465e-4701-b1d3-b7fe4e4794ae,"Kshlerin, Block and Wyman",805-625-8965,0 Northwestern Point,93407,California,https://facebook.com
9b22ef26-e521-468e-95b6-2d5b6e77553b,Kerluke Inc,419-363-3839,436 Rigney Alley,43605,Ohio,https://t-online.de
5beb960f-e10f-4a34-b034-592080482807,Orn and Sons,408-195-4385,22 American Junction,95118,California,http://macromedia.com
21cb619c-53fb-4ad3-a009-86bd4a9bfd5c,Herzog Inc,915-196-6914,70 Troy Park,79984,Texas,http://virginia.edu
ce7d5407-8404-4e5b-8d33-19800749f19d,Wolff-King,205-970-9106,89 Haas Drive,35231,Alabama,http://timesonline.co.uk
a4436880-e3c8-43f4-a146-24f4041355e8,Barton-Zboncak,336-248-3440,3627 Hoepker Hill,27415,North Carolina,http://wikimedia.org
2bc0ce88-bced-49ee-a24e-3f1ba37068e0,"Rohan, Cummerata and Klein",202-185-0129,33753 Oneill Plaza,20530,District of Columbia,https://elegantthemes.com
7b2876f4-b47c-4407-9905-301295aef660,"Swaniawski, Luettgen and Kunze",208-640-1557,960 Eastlawn Point,83757,Idaho,http://usatoday.com
50b297f1-cb31-47d9-990e-b3b1de1adf39,Larson and Sons,205-474-8628,435 Rutledge Pass,35231,Alabama,http://sohu.com
a03f4b7b-e3aa-4e16-b5a8-a5bb792e4d36,Pollich-Cremin,512-648-1948,31 Ludington Drive,78789,Texas,https://tripod.com
44596b08-c922-4928-bb72-750c3d1a95bf,Hessel LLC,314-847-6723,994 Commercial Circle,63136,Missouri,https://ibm.com
a54ad4da-668d-47c0-bd24-90525827b177,"Schultz, Bernier and Stokes",816-624-7753,9809 Warner Plaza,64160,Missouri,https://sphinn.com
00730a65-49a9-4f36-acdb-2a4387bc0595,Bednar Inc,716-335-3753,89 Oxford Pass,14220,New York,http://yandex.ru
e104b533-8335-447e-8204-14fd9aac73d1,Johnston-Sauer,281-396-5100,00 Granby Plaza,77085,Texas,https://ca.gov
72d83a7e-989d-4120-b458-6d5b27c124ff,Balistreri-Reynolds,281-757-3510,07 Jana Hill,77095,Texas,http://aol.com
3a787f03-f2cd-4575-b397-c3470d2d0039,"Marvin, Ledner and Stehr",734-324-1449,07 High Crossing Lane,48126,Michigan,https://sciencedaily.com
7909a2dd-b3ed-406c-90f2-a4ec49b955ed,Miller-Kerluke,850-866-3460,33003 Kingsford Street,32505,Florida,http://seattletimes.com
30b81c6a-cdc2-4aef-87c6-1c6a3d2122ef,"Moen, Ernser and Schmeler",609-788-9432,8 Montana Point,08603,New Jersey,https://scientificamerican.com
797fcbdc-bc57-4106-afb7-c58bedea2c5f,Collins Group,510-130-7554,3668 Oak Valley Way,94660,California,https://cmu.edu
8258ee65-39fc-4568-bb08-717c40929d26,Watsica-Hand,979-222-7742,0708 Mariners Cove Terrace,77844,Texas,https://angelfire.com
7c5146b2-f1bf-445c-8318-fcb189c4b620,Ritchie-Toy,703-737-0039,61 Green Plaza,22205,Virginia,https://fotki.com
7ad47ef3-a063-402e-bf50-6443f8b3a9bc,Spinka-Mueller,719-380-8118,737 Manufacturers Junction,80925,Colorado,http://jigsy.com
fb2321ac-bff6-4daf-8cc5-20fa379e3fe1,"Walker, Krajcik and Gerhold",904-353-8895,601 Eagan Alley,32225,Florida,https://bizjournals.com
c73ffb4f-24b7-4da0-a1dd-d8ae50dbd5c2,Osinski-Kemmer,336-137-0305,601 Jana Center,27157,North Carolina,http://qq.com
95f5b32a-76b8-423d-8a65-add6857b312e,Carroll LLC,573-517-2190,50 Killdeer Center,65105,Missouri,https://usnews.com
718d272e-0a62-4e72-a671-20ea15edde27,Sipes and Sons,210-822-5657,976 Petterle Street,78225,Texas,https://howstuffworks.com
81dab9bf-9ce3-4b57-97bd-42a2baddf361,"Wehner, Shields and Hane",682-318-5362,85388 Blue Bill Park Park,76162,Texas,https://ovh.net
e825c643-9bfd-4604-9a09-799ccc1366be,"Glover, Konopelski and Hahn",702-343-7454,02 Pepper Wood Center,89110,Nevada,http://digg.com
f2f4370c-f9bc-415e-879e-5574260c183a,Hickle-Von,952-800-5022,1 Emmet Point,55436,Minnesota,http://over-blog.com
1737fb87-b3bc-4498-a825-3b49507115f9,"Mann, Gusikowski and Parisian",757-496-4921,527 Del Sol Alley,23225,Virginia,http://com.com
a4b04d7e-c272-4b7d-8d7b-e54d122cbe3a,"Bayer, Steuber and Kihn",315-687-6664,650 Bartillon Point,13205,New York,http://buzzfeed.com
dc69ae36-d8af-4a2e-acba-e6959a3c9b09,Roberts-Gislason,432-703-9226,24293 Northwestern Center,79710,Texas,https://reuters.com
cab7f6b4-9639-49c4-b0b7-4e1fad2c6664,Oberbrunner and Sons,314-407-9303,32565 Bunting Terrace,63143,Missouri,http://4shared.com
b96fdd0a-8bfe-496e-a266-9cb5de34bd07,Ferry-Deckow,202-345-2916,5 Fremont Hill,20580,District of Columbia,http://ftc.gov
9e84c614-71d5-4826-b344-a5eee8313294,Beier Group,281-847-7863,09 Forest Run Avenue,77293,Texas,https://nature.com
696bcdd1-2203-499a-9772-52e5729e3c21,Koss-Block,325-937-1510,25787 Starling Court,76905,Texas,https://businesswire.com
425d58fa-040b-4142-ab13-800377cce56e,"Wunsch, Miller and Borer",678-958-9666,9978 Canary Hill,30245,Georgia,https://about.me
bfd01bfe-0fed-4fdb-8b14-ccd6e8c5abc9,Jast-Goyette,614-984-7593,96208 Charing Cross Park,43284,Ohio,https://stumbleupon.com
8254c222-7595-41e6-a9ae-0f1109f1de8f,Hermann-Schmitt,239-133-5427,745 Jenna Pass,33913,Florida,http://hubpages.com
7c460e64-b9d8-4d6f-9301-952db31134bd,Ferry LLC,361-811-6858,4799 Scott Circle,78405,Texas,https://slate.com
5455e5f9-c87a-4593-9931-8edf9fda8f59,"Abernathy, Ward and Morissette",318-764-0452,8527 Macpherson Pass,71115,Louisiana,http://mail.ru
bd47ba53-eb38-486d-b6a9-8a105aff534c,Schumm-Schneider,919-567-3258,5947 Golf Drive,27690,North Carolina,https://time.com
2f0411dc-7d44-4491-881e-72a71c14b66d,Ernser Inc,910-860-3585,003 Dahle Drive,28314,North Carolina,https://oracle.com
e26d7acc-69a0-4f60-8f86-e60ec4a5f7f1,Cremin and Sons,619-448-2929,9 Acker Pass,92153,California,https://1688.com
fcf0fc28-b73f-4921-af73-c76fccf17224,Ullrich-Brekke,313-602-1900,813 Ilene Court,48217,Michigan,http://plala.or.jp
9a740b6e-55fa-4da2-b5aa-7854cb539c7c,"Lemke, Schmitt and Koss",512-667-8528,8081 Moland Junction,78732,Texas,http://foxnews.com
55201e7a-7c61-4e7e-b878-d8b059ce5298,Lynch-Bednar,402-455-7504,93316 South Junction,68505,Nebraska,http://spotify.com
035ee53f-6d00-49c3-916e-fe720ebb71d3,Farrell-Mayer,714-808-7636,29 Swallow Drive,92805,California,https://patch.com
6d00289e-3d9b-482b-82cd-17bc44f6ba2f,Marks-VonRueden,916-797-3954,4027 Linden Park,94291,California,https://xing.com
5d757a73-a17a-4ae0-ac07-c5cb04b886ae,Hartmann LLC,601-912-9621,1 Portage Hill,39204,Mississippi,https://un.org
d73b4662-3ec6-4be7-8e87-0ba90ae97698,"Terry, Kautzer and Rau",814-246-7640,179 Warbler Crossing,16522,Pennsylvania,https://marketwatch.com
f6ab950c-05e0-433c-bbac-4c82344364dc,Lakin Group,515-610-1753,1 Kingsford Parkway,50305,Iowa,https://istockphoto.com
7d238e28-83d6-4894-8e9c-024e3753e7d1,"Streich, Beatty and Mosciski",859-315-3412,1008 Marquette Crossing,40586,Kentucky,https://dion.ne.jp
068fa066-26d6-40b0-bb62-f38f4eb66a54,Durgan LLC,201-543-3332,95 Vera Hill,07305,New Jersey,https://chron.com
8d59a0af-271e-4c19-ac5a-c4eefecb928d,Douglas-Welch,614-193-9239,38 Crescent Oaks Trail,43226,Ohio,https://cdc.gov
f6b6c8e7-0bdf-47a6-8581-aa343ae99063,Moen-Nienow,336-496-6916,7017 Homewood Plaza,27116,North Carolina,https://soundcloud.com
97a12f9f-362b-4423-96c4-9b1db7de41a2,Hessel Inc,417-702-0783,3693 Main Center,65810,Missouri,https://biglobe.ne.jp
b212e60e-e895-4318-adf4-994ab526ead5,Volkman Group,916-675-6493,104 Prairie Rose Parkway,94286,California,https://tamu.edu
0324677a-9268-4290-96e2-f9dd94738241,Robel Inc,405-446-9464,94 Roth Hill,73124,Oklahoma,https://cbc.ca
fdbbf6d9-6c05-479b-bb61-beeaed38e0f0,"Lynch, Dooley and Schowalter",202-197-9147,0 Scott Road,20244,District of Columbia,http://cbsnews.com
701dc3ea-f870-4e19-9c79-e0584238a366,Feeney-Kuphal,941-929-6638,75568 Oakridge Drive,33982,Florida,https://friendfeed.com
c04582cc-7508-4caf-a3f9-c26d44f94e81,"Swift, Kozey and Treutel",785-342-3767,30463 Pleasure Center,66642,Kansas,http://zdnet.com
f174f30c-fa8d-478a-b04f-fc00d60ec69e,"Krajcik, Goyette and Ondricka",704-707-6969,3 Waubesa Way,28299,North Carolina,http://exblog.jp
61037bed-b2ae-4a44-a8c6-a57ed620525c,Schroeder Inc,860-577-9000,81150 Waubesa Court,06145,Connecticut,http://thetimes.co.uk
059f89f3-4ddb-45ef-83bc-ffd0b8c8d649,Pollich Group,816-939-0925,71 Quincy Way,64130,Missouri,https://fotki.com
62dec3ef-b557-4377-9269-62218697b5e1,Kovacek-Auer,502-593-9840,89693 Clyde Gallagher Lane,40210,Kentucky,https://mozilla.org
74c23ebb-62e5-453f-9561-bdfb4716db52,Smith-Larson,917-776-7288,4 Leroy Point,10019,New York,http://washingtonpost.com
1d2049c8-0463-46c3-b197-de6831c493fe,"Boyle, Feeney and Schulist",216-223-8411,9 Algoma Alley,44177,Ohio,http://domainmarket.com
a65f72c1-5525-4a0d-aa4d-d61add4743a2,"MacGyver, Stiedemann and Feest",816-317-7366,66647 Ryan Plaza,64187,Missouri,http://google.com.hk
5a55211d-676a-437f-913a-f91c2d65d3fb,"Treutel, Pouros and Dooley",215-443-6310,84 Randy Terrace,19172,Pennsylvania,http://mapquest.com
491b4bc7-f0f8-4fd4-a098-7f5edf0f1792,Rippin-Bailey,256-415-5683,29759 Little Fleur Avenue,36205,Alabama,http://hexun.com
2f6b7c8a-f9fc-4feb-b45d-35e118428682,Roberts-Brown,336-831-9387,575 Erie Avenue,27157,North Carolina,https://shareasale.com
d7909e34-a68b-4007-a390-8f76f886c5d0,"Christiansen, Kilback and Marvin",253-689-2847,420 Gateway Plaza,98464,Washington,https://weibo.com
690b9304-3a6f-4675-8da4-f1deb5c64c9b,Christiansen LLC,616-754-8489,460 Grayhawk Alley,49518,Michigan,https://shareasale.com
f71b2e14-3c87-419c-805e-d1a1f9981889,Greenholt and Sons,484-905-8547,31 Knutson Plaza,19610,Pennsylvania,http://ibm.com
1c5a0010-21bb-43e2-b801-5fb420768c68,Ledner-Harber,202-500-7166,6175 Loomis Junction,20525,District of Columbia,http://go.com
63fdd5c5-4e23-4966-8beb-7cd29b4d2e95,"Green, Boehm and Rutherford",608-547-0590,472 Mandrake Street,53785,Wisconsin,http://ucsd.edu
047fec59-8f0f-4747-a207-71421819fae0,Dickinson-Bosco,509-354-2651,034 Mesta Avenue,99220,Washington,http://wsj.com
22bce55b-b04f-4ee2-bea3-0e9931570a88,Yost-Jakubowski,561-296-5576,55780 Bay Court,33499,Florida,http://webnode.com
3813e9ce-e703-4c6d-be68-fbaa5b2ebcd0,Kuhn Group,915-516-7017,33533 Prairieview Street,79968,Texas,https://washingtonpost.com
70d14638-69a3-440d-b143-49c17f5fdc02,"Windler, Cartwright and Littel",716-644-9532,16 Riverside Parkway,14225,New York,http://a8.net
4ca7aff8-f0aa-4b62-b31a-882554f11886,Walker Inc,704-312-1228,877 Farwell Street,28230,North Carolina,http://liveinternet.ru
c2ec5a05-c43f-496f-8f32-7deb7dd6d25d,"Stiedemann, Emmerich and Miller",940-754-2911,992 Basil Pass,76205,Texas,http://wikia.com
33f559bc-25d7-44ac-8692-c54d249fd2a1,"Hayes, Schmidt and Jacobson",251-706-5813,20830 Londonderry Avenue,36689,Alabama,http://mac.com
544a94f8-8bd8-431f-bf22-ca1cef191143,Streich-Heaney,212-124-1481,8788 Green Ridge Circle,11499,New York,http://who.int
4f171f77-8021-4237-b3f3-38156359ce9a,Hackett Inc,714-297-6917,6692 Carioca Plaza,90040,California,http://imageshack.us
37531f45-a5e3-43f8-a86e-f530ad30426a,Pollich-O'Keefe,646-737-8365,620 Sunnyside Terrace,10155,New York,https://discovery.com
7142ea7f-1d52-404a-a2cf-773dce191a39,"Ortiz, Lubowitz and Nicolas",702-871-6284,2378 Stoughton Plaza,89140,Nevada,https://amazon.com
6de12d7c-327d-4868-87cf-95559e407f6e,Towne-Johnston,214-953-0062,849 Melody Way,75392,Texas,http://usda.gov
c9fd54d5-9128-4fa2-8de3-aa76aff4d2b0,Kohler and Sons,206-158-4760,247 Harper Terrace,98115,Washington,http://noaa.gov
7d0afec4-340e-474d-b1a7-2097c448c06b,Pouros LLC,719-808-5219,32704 Oxford Avenue,80945,Colorado,https://cnet.com
3fc4fc91-cc21-4425-b5ab-7b766b44bd8e,Upton-Donnelly,520-912-9395,008 Carpenter Terrace,85720,Arizona,http://last.fm
615587b5-fe2e-4788-b051-59a3e699d5e2,Barton-Hermiston,239-989-5728,8359 Northport Hill,33915,Florida,http://soundcloud.com
36335e53-75bc-4eae-84e4-298c0e1d386b,"Daniel, Daugherty and Gerhold",954-243-0179,56 Pepper Wood Street,33180,Florida,http://ovh.net
24fd4825-698f-445d-bea6-d246f65b3932,Carter-Nienow,717-459-8430,93830 Bunker Hill Drive,17140,Pennsylvania,http://ebay.co.uk
34a79c9d-39da-4431-b926-74f0b34f3b42,Schinner-Leannon,212-156-5278,00 Mallard Pass,11499,New York,http://mysql.com
0d5f52be-3e92-4c02-a349-846b846b0a57,"Franecki, Stroman and Cartwright",704-906-2058,66 Dennis Way,28055,North Carolina,https://cbc.ca
61899594-c92c-4066-9828-8022b6e8ebb8,Effertz-Ferry,505-308-4352,3 Welch Point,87115,New Mexico,https://abc.net.au
db433083-96a3-4304-bff6-9bb41c9fca61,"Ritchie, Runolfsdottir and Price",757-127-0543,1 Meadow Valley Plaza,23454,Virginia,http://europa.eu
2a217a48-4bcb-4f7f-bd89-be906909e365,Nolan LLC,708-141-4374,6 Northport Circle,60604,Illinois,https://adobe.com
f40860cd-1345-4d3e-b7b7-617a5ef58a05,"Streich, Stoltenberg and Hintz",360-308-4562,0 Coolidge Park,98682,Washington,http://hp.com
fe801a01-5864-4ab5-b6c4-76e94702a037,Murphy Inc,541-730-2212,651 Sugar Trail,97405,Oregon,https://goo.gl
af6bbe6f-278c-4e0f-ad2c-ada01439908b,Little-Greenholt,214-731-8663,0596 Lyons Alley,75397,Texas,http://icio.us
f78c7d16-ca2b-477f-89be-2b5cda5dc403,MacGyver-O'Keefe,214-720-3287,65 Sheridan Plaza,75387,Texas,http://fotki.com
6804b36d-dbda-49c2-8863-7b2eae6c7fb1,Jacobs and Sons,304-111-0031,713 Golf Course Alley,25356,West Virginia,https://youtu.be
fe7609e0-3f61-4f41-89a1-133c26bbda2b,Ryan and Sons,845-671-8066,6 Jay Center,10633,New York,https://t.co
5692d3a8-fb87-47de-a6a8-65aa91ae9779,Tillman-Berge,216-340-0318,750 Ridgeway Center,44197,Ohio,http://sciencedirect.com
12149cfa-80be-432b-b6e6-e8a441a32781,Corkery-Pagac,216-843-2533,77596 Little Fleur Avenue,44111,Ohio,https://xing.com
417e523f-f63f-4f3e-95e8-5402ca6c8977,Strosin-Mills,312-756-9420,195 Crownhardt Circle,60697,Illinois,http://google.it
2aaf94d1-d5d8-4458-995e-8d0e7e6ce73e,"Carter, Haag and Smith",713-480-8469,82 Nancy Place,77299,Texas,https://cdbaby.com
e79ee737-0f65-403e-8e90-2cb3dca09077,Gaylord Group,337-663-7542,176 Magdeline Terrace,70616,Louisiana,http://digg.com
45969270-5aad-4a54-913e-a5587422eee7,Doyle LLC,205-112-5150,2450 Golf Drive,35205,Alabama,http://cafepress.com
bf5ab65e-d36a-48b1-a93b-c8e0209a0913,"Okuneva, Balistreri and Koch",619-485-9553,6 Kenwood Alley,92165,California,http://princeton.edu
7d05e468-2719-4b83-adec-0efa64011d6c,"Hagenes, Schmidt and Prosacco",812-654-8730,336 Rowland Circle,47405,Indiana,http://japanpost.jp
aeb40ab0-f327-4801-93ee-d55175fa6bf4,"Skiles, Veum and Streich",619-673-9206,48880 Beilfuss Plaza,92115,California,http://photobucket.com
dea88c1f-8f20-4e9e-a681-9067bc4aa622,Dach and Sons,816-238-0098,61 Superior Road,64190,Missouri,https://theglobeandmail.com
5bc79880-d8aa-4adf-9c34-6eed7852d384,Wilkinson and Sons,978-710-2879,6442 Lien Park,02283,Massachusetts,https://columbia.edu
1bc95c06-e920-4602-ba21-68125fdfbb55,Daugherty and Sons,775-948-4046,6621 Dryden Trail,89510,Nevada,http://geocities.jp
f34f585d-114f-4e5e-a61d-3f190ed166ef,Ernser-Nolan,303-770-6768,30 Bobwhite Park,80015,Colorado,https://sitemeter.com
d8258a8c-ad71-42de-9296-25f014f0ba54,Hegmann LLC,240-869-2495,0912 Atwood Park,20719,Maryland,http://cloudflare.com
3b3e9fca-041b-45a0-bcc4-997f73e8997f,Pagac LLC,617-286-6472,967 Dayton Park,02203,Massachusetts,http://dion.ne.jp
20b7aa22-b86b-4414-961e-70af5f2c4368,Aufderhar Inc,215-406-0154,8 Longview Center,19125,Pennsylvania,http://typepad.com
b52b304e-3880-4906-a08b-6cf8f8cebdd0,"Rosenbaum, Orn and Schaden",540-683-3373,0385 Graceland Point,24034,Virginia,http://businessinsider.com
ab927458-1f1a-4305-839d-ec5422187550,"Renner, Tremblay and White",914-691-1897,252 Anniversary Road,10705,New York,https://amazon.de
fffa179b-a414-4681-98ac-3af0f118b6db,Bins-Legros,860-767-4423,00 Dixon Hill,06120,Connecticut,https://theguardian.com
67d9137b-c664-4bf8-8dd8-87c0b9542a06,Turcotte Inc,951-765-7327,70208 Washington Hill,92555,California,https://miibeian.gov.cn
38566864-b4d1-4f14-a23a-3bec18d0da9f,Lueilwitz-Braun,414-715-5127,18 Caliangt Pass,53285,Wisconsin,https://redcross.org
9c5b14c3-bcd4-4d51-9565-b558f2d18e63,Buckridge LLC,716-478-5846,1 Pepper Wood Plaza,14225,New York,http://google.com.br
4ff5344b-7595-4707-b617-4398995b179a,"Hauck, Hirthe and Ward",702-447-7816,039 Badeau Hill,89145,Nevada,https://google.it
8d64ba81-e1cd-4410-a8fd-fa6124e5bf0c,Hudson-Gleichner,202-477-8896,4 Sherman Hill,20546,District of Columbia,http://tmall.com
36be6a2e-19bb-4987-9ec5-93aa6d186011,"Stanton, Funk and Collins",603-459-6100,4 Hazelcrest Road,00214,New Hampshire,https://homestead.com
3e20c467-8a1e-4db9-a364-25abdde0533d,Cruickshank and Sons,619-154-6355,2 Holy Cross Avenue,92121,California,http://comcast.net
432e3cbb-a55e-40b8-83ac-49e7bf0d0c61,"Schultz, Tromp and Prohaska",513-922-1439,4497 Larry Pass,43215,Ohio,http://howstuffworks.com
c02eb3ad-b655-4d6b-b4ed-0d53f3cdb70d,Stark-Powlowski,916-916-3022,36100 Pawling Crossing,94297,California,https://w3.org
2ecd957a-edda-46c7-b612-75e7419db911,Predovic-Pollich,541-566-4967,94 Vernon Hill,97405,Oregon,https://addthis.com
333ac9ba-66d4-45ab-9151-039d556d55ad,"Lowe, Kovacek and Frami",716-906-3981,732 Crescent Oaks Road,14233,New York,https://t.co
74e75863-159a-4fe4-8ae3-d893eabf4c75,"Monahan, Zemlak and Murray",860-122-0115,3 Buell Center,06183,Connecticut,http://bbc.co.uk
ff817f34-55ce-43bf-9958-9b0539088b2d,"Hintz, Boyle and Schaden",801-537-6315,17 Kinsman Circle,84189,Utah,http://buzzfeed.com
4949067d-e008-4b2e-96bb-da76735a8f37,Rogahn Inc,281-243-3182,8 Florence Street,77080,Texas,http://com.com
a0397acb-5209-48db-9ce0-e38385e71d07,Bernhard Group,714-522-4177,7814 Stang Lane,92812,California,http://mlb.com
0e9bd16a-0431-45fd-a2da-72080bf0748a,"Considine, Trantow and Bartoletti",563-534-7300,3 Oxford Hill,52809,Iowa,https://wikispaces.com
81fbe590-b95e-4896-bc0a-84f13d0623ff,"Cartwright, Dach and Brekke",213-290-1223,1 Hayes Hill,90081,California,http://howstuffworks.com
c0a4f406-d2c9-461f-8146-82819263efee,Abbott LLC,916-542-6362,0679 Sunbrook Point,95818,California,http://washingtonpost.com
028ffb48-a028-4721-a806-ad84c93cf136,Roob Group,336-967-4374,89650 Leroy Street,27425,North Carolina,https://plala.or.jp
00d14f0a-593c-40d6-8827-56ee95138e59,Ullrich Inc,562-390-2149,45853 Fisk Terrace,90045,California,https://intel.com
aa6706ac-492c-42d4-a75b-af387fd1f0ce,"Parisian, Watsica and Cruickshank",510-218-5706,534 Morning Road,94807,California,https://addthis.com
ea702b4e-1dbb-41d6-a360-b6156d4e84e5,Beatty-Hettinger,785-160-8268,0 Thierer Trail,66617,Kansas,http://wufoo.com
f0e5e410-5ecb-4564-8e64-36150b0df6a8,Stoltenberg LLC,571-201-6705,35 Sheridan Court,22093,Virginia,https://last.fm
dba741ed-3176-4274-ae16-28b5d80d35fa,"Mills, Beier and Hudson",316-521-5421,640 Dryden Court,67205,Kansas,https://1688.com
72f5566a-39c8-481c-a0bc-aecba5abc0a8,Gerhold and Sons,518-144-5412,69 Bay Hill,12232,New York,https://google.co.uk
0588bacb-1010-4184-9571-ba55de8563b1,Cremin-Kovacek,814-415-7185,21100 Hudson Way,16550,Pennsylvania,http://economist.com
9371a5c2-8291-4c4e-acd9-f1ecc4707024,"Hermann, Cormier and Wilkinson",212-351-4914,2 Fair Oaks Terrace,10125,New York,http://cnbc.com
e83e17e3-7368-4b5a-a0d4-f40cb33c0e70,"Roob, Bosco and Pollich",859-670-6692,017 Kenwood Center,40596,Kentucky,http://mit.edu
cc3ec9cb-2b46-4d8d-b5c9-337d91e1dae1,Gutmann LLC,719-577-5948,6245 Lakewood Street,81005,Colorado,https://feedburner.com
ac25e8fa-b28e-419c-b717-858655270b69,Marvin-Pfannerstill,727-812-2454,38 Dennis Trail,33742,Florida,http://ca.gov
a257f2d7-9f6d-4704-b0f9-72c004211e27,Lowe-Rogahn,503-719-7794,2 Nancy Plaza,97296,Oregon,https://last.fm
d6f825aa-f50d-4643-baa4-6d33a2fa58a2,"Hodkiewicz, Jacobi and Muller",907-395-4538,83 Melrose Terrace,99507,Alaska,https://scientificamerican.com
e996a75d-d4a6-41a1-ae37-b8be070e854c,Harvey Inc,504-723-8118,0548 Fisk Court,70142,Louisiana,https://cocolog-nifty.com
1904256c-0194-4e68-a69f-bdd130648535,"Rath, Glover and Moore",502-423-1606,03 Hauk Park,40266,Kentucky,https://example.com
957b7ebb-7b8f-4b1c-b764-863048946e05,"Mante, Purdy and Johns",202-416-6490,18 Rowland Pass,20268,District of Columbia,https://t.co
aafcd113-0187-43b3-8b85-c92eb9c94d41,"Kuvalis, Kris and Mayer",585-604-5960,91528 Eggendart Park,14683,New York,https://spiegel.de
e2e6cb93-ab7c-4228-998a-f038804448cd,Heller-Bogan,314-414-1653,6 Lawn Parkway,63136,Missouri,http://pcworld.com
dfe8fdc8-a54a-428d-ae0c-147584dd920c,"Jacobs, Weissnat and Kuhlman",661-269-8649,55122 Luster Trail,93584,California,http://e-recht24.de
45f4aa95-0fdb-4322-aa99-137b0f190b71,Wehner-Kassulke,770-620-9758,33 Farwell Road,30022,Georgia,https://is.gd
d03dcfc5-9181-4e92-9248-30a0df760cd5,Ruecker-Pfeffer,608-258-5245,201 Boyd Court,53790,Wisconsin,https://phoca.cz
ade3fb1c-52b4-42bc-806d-57e824b11a4e,Block-Boehm,772-218-7839,36 Crescent Oaks Way,34981,Florida,http://gmpg.org
4e350dd5-664b-4315-bc08-42f1cacf9377,Will and Sons,512-474-4924,9071 Maple Street,78749,Texas,https://vimeo.com
27bfcae3-19fe-4ff8-93c6-851290068c69,"Krajcik, Lueilwitz and Schowalter",608-219-0095,7 Butterfield Place,53716,Wisconsin,http://bbc.co.uk
5343e9e3-a87e-42ad-98f9-ae492d2537e7,Vandervort Group,562-101-1833,58 Arizona Plaza,92648,California,https://ask.com
a53c12ef-854f-4e45-9b01-2b48442c3ecb,Schoen and Sons,850-564-9233,485 Mallory Lane,32405,Florida,https://google.de
e14b43c8-359e-4093-8520-e773e65d5e83,Feeney-Barrows,916-680-5022,478 Corry Plaza,94291,California,https://instagram.com
dabb791b-8d47-4be3-b36c-a626f75891e8,"Hane, Senger and Okuneva",917-696-5166,19 Nova Court,11236,New York,https://webeden.co.uk
22fec661-d8d8-4094-a55e-df0fd6d8d29c,Von Inc,305-546-3397,3 Upham Crossing,33961,Florida,http://eepurl.com
62f9cbbf-3bf4-4378-88a8-b3f4db5fbf80,Von-Gulgowski,816-993-7858,234 Loeprich Park,64054,Missouri,https://tripadvisor.com
13d8e701-dc0d-4bb7-a6a7-3b96354c5cb9,Ebert-Ebert,469-985-4244,78 Ridge Oak Parkway,75062,Texas,http://gmpg.org
5ef29c4d-5176-485d-9c2b-6b74642dd95f,"Altenwerth, Luettgen and McLaughlin",562-799-7827,81 Garrison Street,90840,California,http://unesco.org
8901db01-22ed-4dd8-a728-d797fa9e3869,Hagenes-Langworth,646-325-8690,0820 Clyde Gallagher Park,10045,New York,https://taobao.com
9568187b-beb1-4b73-ba04-2ec1121d681b,"Halvorson, Lang and Herman",954-931-9291,643 Nova Way,33305,Florida,https://nih.gov
e0c036dd-e76b-4c85-9eb3-d135d5936272,"Considine, Hermiston and Jacobs",816-672-3159,6 Homewood Point,64179,Missouri,http://economist.com
c8aec6bc-7e4c-46d7-877b-bc8585439e20,Graham-DuBuque,803-841-2114,4 Corscot Terrace,29203,South Carolina,https://wikispaces.com
8403b3cb-cd3d-4bb7-a0cb-9ea49c7ebfa2,"Gleason, Ziemann and Sanford",850-687-3269,07371 Merchant Street,34665,Florida,http://ucsd.edu
1518d221-534b-4b4e-9bfe-f6be2dcc37f1,Kiehn-Heidenreich,215-257-4475,735 Muir Hill,19141,Pennsylvania,http://google.co.uk
26bb84bb-e911-4bc0-a4e6-96d190a486be,Glover LLC,913-485-9197,88 Porter Center,66286,Kansas,http://cnn.com
81421608-99b5-4d68-9bf6-e9b6007766e5,Fisher-Hayes,786-728-1294,31 Farmco Plaza,33169,Florida,https://businessinsider.com
d84443ca-343a-4d90-a58f-23109c353192,Ebert-Abernathy,505-966-2533,91928 Golf View Center,87195,New Mexico,http://discuz.net
6792fa68-496e-4477-bb95-9f4ed4ba5a03,Dibbert Group,918-794-3262,8 Packers Plaza,74170,Oklahoma,https://cpanel.net
b1ce1043-d21f-4939-b663-6d64ff41595f,Borer-Thiel,720-954-4006,79090 Westport Alley,80223,Colorado,https://amazon.co.uk
157c6436-454c-4074-8567-6a44b5ceea93,Zemlak Inc,717-241-5252,5010 Scott Street,17605,Pennsylvania,https://lycos.com
08a28579-5f42-40a2-a270-9dec26a64888,"Bode, Feeney and Hane",303-413-1710,1439 Garrison Center,80044,Colorado,https://tripadvisor.com
f8615234-0d63-4c49-abe1-04bf78a1cf40,"Kuhn, Pollich and Moen",702-786-2280,14 Esker Lane,89145,Nevada,https://mlb.com
31517c53-c5c4-4673-857b-5f41d405dbac,Quigley Inc,415-238-9764,4207 Saint Paul Place,94177,California,https://amazon.com
517f3cde-2f94-40a2-b6ed-f291094f3732,Moore-Larson,501-754-8222,5 Bayside Park,72204,Arkansas,http://time.com
b2a37cdf-b062-4d08-9c8c-f2eca0d22eed,"Welch, Christiansen and Stiedemann",309-808-5902,440 Carpenter Circle,60158,Illinois,https://tinypic.com
672d6b0b-602f-4c7b-81fd-0d9dac4a0aa9,Thiel-Abbott,202-937-4663,045 Tony Circle,20436,District of Columbia,http://cargocollective.com
50d0fc1a-777f-4990-85e5-f6dcff7db9a1,"Greenfelder, Ullrich and Simonis",919-582-6492,4 Almo Drive,27621,North Carolina,https://hatena.ne.jp
f890b3c8-9f8d-4b6a-b2f3-73c47ae257ae,"Smitham, Gleichner and Lind",515-785-2078,3043 Leroy Crossing,50310,Iowa,https://vistaprint.com
500ebda5-e1ee-459e-8bd2-57783a73f6a2,"Bartoletti, Wilderman and Moore",850-492-1488,4889 Springs Point,32314,Florida,http://tripadvisor.com
80cc652e-bd2f-44a3-9225-0efc4680329d,Mosciski-Keebler,860-257-7602,08822 Dennis Road,06152,Connecticut,http://ft.com
4ba40733-b821-4faa-80c4-ae2475151c09,"Wolff, Lebsack and Hoppe",704-163-2168,9842 Stuart Park,28220,North Carolina,https://tinyurl.com
736f2bb0-6983-4514-a49a-cec7923299b1,Vandervort-Dach,214-631-0315,5 Prentice Lane,75379,Texas,https://cdbaby.com
e9da0bf4-48c3-4955-ac0e-84fdbdb7bdd9,Corkery Group,713-516-1860,64 Sachs Circle,77388,Texas,https://webnode.com
b571fe1a-5277-4fd0-8e19-0bbcf14b847e,Lemke Group,423-352-1494,815 American Ash Alley,37450,Tennessee,https://theatlantic.com
226bf08b-1b24-48b2-b8d5-33dd78f565f2,Luettgen-Schuppe,401-508-7582,0764 Esch Road,02912,Rhode Island,https://rediff.com
99a02cb4-00f9-4aed-af4d-61b250834362,"Bergnaum, Collier and Block",914-467-5648,4678 Hanson Pass,10705,New York,https://homestead.com
af667f9f-74a6-4628-823e-17a165d6f643,Collins-Volkman,704-506-2317,40 Beilfuss Point,28055,North Carolina,http://shop-pro.jp
d9f9fb28-3c0a-4784-85c6-266d217723e5,"Schmeler, Wisoky and Cronin",636-579-5589,79584 Stoughton Plaza,63126,Missouri,http://msn.com
9d1ce35a-d078-4ace-ab41-8fe8b7734640,Thompson-Lehner,765-537-7932,8 Village Green Crossing,46015,Indiana,http://discuz.net
3df76c7e-3d4c-432f-bb98-d4cbc5a24aad,McCullough-Huels,540-161-8369,1327 Tennyson Center,24034,Virginia,https://csmonitor.com
aa1b275a-e378-42ee-8423-16d5baeccd2e,"Trantow, Effertz and Macejkovic",702-575-4557,4 Chinook Way,89110,Nevada,https://nih.gov
1abc10e6-27cb-4fe3-9903-64574a23738a,Kerluke-Mueller,602-489-2758,2 Barby Street,85067,Arizona,https://wisc.edu
30603bb1-1965-4940-8abd-f2ae8ab06db7,Brakus and Sons,202-272-3444,33627 New Castle Terrace,20442,District of Columbia,https://unblog.fr
4d2684d6-cf99-475c-b84c-4d7924329cf0,"Reichel, Dooley and Nader",502-183-3565,8 Barnett Park,40250,Kentucky,http://bloomberg.com
629d2ddf-0308-4057-b7c0-f7b2d4b19879,Metz-O'Reilly,716-664-5641,69279 Bartelt Court,14276,New York,https://vinaora.com
275b140b-f6a0-49dd-a471-caf98b81e686,Lemke Inc,330-414-4360,173 North Drive,44705,Ohio,http://tmall.com
6cc1388e-54e7-4fed-a611-41206fa1ed75,Lockman and Sons,727-604-5557,8132 Lawn Terrace,33710,Florida,https://telegraph.co.uk
d44eb88d-11f5-41f3-a343-b61ee0f9b222,"Lowe, Runolfsson and Kuhn",312-963-6643,904 Merry Plaza,60641,Illinois,http://webeden.co.uk
f91b97b1-b549-4155-b95a-254d7bef9a9a,Glover-Jacobson,919-411-8011,4 Browning Street,27690,North Carolina,http://mlb.com
3aa34073-550e-4b6b-acde-ea905a47386e,Crona Group,415-136-3209,1 Lake View Park,94132,California,https://imdb.com
a16059af-b01f-4af7-8e19-e2cc592826f6,Jenkins-Schulist,646-872-2946,1876 Nelson Terrace,11215,New York,https://europa.eu
5a82d95a-5ee3-4c19-9116-da3b8eaa3d51,"Wuckert, Yundt and Sporer",210-262-5531,2617 Scoville Way,78278,Texas,https://craigslist.org
3d01ea4f-80b1-456b-ad65-19901af517a1,Welch LLC,484-824-7490,677 Hanover Street,19495,Pennsylvania,https://reverbnation.com
f1259645-5111-4a10-9910-4d673a9307af,West LLC,339-744-4069,096 La Follette Court,01813,Massachusetts,https://ucsd.edu
25d37bc3-3e13-44ee-930f-49729c582367,Rutherford and Sons,202-218-8912,1 Swallow Road,20005,District of Columbia,http://japanpost.jp
38bb52b6-fd0d-47e8-9763-d815173464c2,Kuhic Inc,520-538-1528,68 Haas Place,85737,Arizona,https://businessweek.com
7f29a95b-732d-423e-9d11-f1469ed0ceb7,"Senger, Kohler and Fahey",478-241-3810,20 Moulton Circle,31205,Georgia,http://sohu.com
363671a1-0d10-4ff2-b314-3655e46a98d4,Lebsack-Shanahan,850-110-0387,46 Atwood Alley,32511,Florida,https://nbcnews.com
faaa103b-e904-4e46-a79c-b5abc3da8bb6,Greenholt LLC,702-404-1188,8573 Pawling Terrace,89166,Nevada,http://jalbum.net
704ce88e-8045-4238-8f41-f1fba8aab559,Block-Tromp,336-131-9893,59 Shopko Circle,27105,North Carolina,https://netlog.com
8e89a08c-b408-4945-a059-0dea194b5e5a,Renner-Frami,518-694-1417,969 Delaware Road,12242,New York,http://1688.com
9c97e3e5-41a4-4242-920a-30455e65dbd6,"Trantow, Mante and Hegmann",317-775-3384,0159 Grover Road,46239,Indiana,https://zimbio.com
d1dc9099-f470-473f-b43e-9d3503636788,Braun LLC,941-909-9646,5351 Lindbergh Lane,34290,Florida,http://studiopress.com
d4634748-7b1d-4b05-b0c7-1fa683618fb4,Green Inc,760-756-6536,19 Jenifer Street,92668,California,https://usda.gov
0bb97954-13c9-429c-902b-e5dd03512556,"Rath, Donnelly and Cartwright",202-769-8651,04 Sunfield Hill,20910,Maryland,http://elpais.com
1410d38a-1230-472d-b1a6-31902a31ed92,Kovacek Group,205-604-0148,905 Hagan Trail,35285,Alabama,http://scribd.com
821e3471-f761-438b-870b-71cef24d3eae,"Cronin, O'Conner and Nicolas",323-923-8745,8480 Luster Drive,90305,California,http://weibo.com
42d8bdbc-219e-467c-aa3f-440d53fbfa7e,Fritsch and Sons,509-737-8626,305 Menomonie Point,99210,Washington,https://rambler.ru
8af3e776-80c8-4cca-ba63-aeebf890126d,Runolfsdottir Inc,518-154-7265,6 Debs Park,12210,New York,https://wikispaces.com
cc55dde8-43db-492d-8e26-b6d8ee526d22,Adams LLC,203-395-4610,03156 Mcbride Parkway,06905,Connecticut,http://disqus.com
d77e14a0-3518-40e9-81bf-dee209ef9604,"Connelly, Jerde and Oberbrunner",410-431-7388,0 Toban Circle,21239,Maryland,http://huffingtonpost.com
1851017f-615d-4333-bf00-ff6ddbee1bad,Thiel and Sons,206-970-8620,9 Sherman Junction,98148,Washington,http://independent.co.uk
3a00e3d2-4a85-4014-920f-a7a766707326,D'Amore Group,773-637-5242,7 Summer Ridge Court,60609,Illinois,https://ted.com
68815a9b-b98b-4be2-8111-c986cc0bd938,Greenholt Inc,818-314-7715,80 Gina Center,90035,California,http://youku.com
25dc8c06-74e4-4d30-bfd1-d0fe4030cc81,Yost-Rau,704-722-3655,48 Towne Alley,28055,North Carolina,http://ebay.co.uk
e6de9c9d-ed7e-4be1-b52d-80fc894e67d4,Abernathy-Muller,513-150-0344,17909 Birchwood Point,45243,Ohio,https://reuters.com
545b62c6-f740-4d18-8d64-c07e4943e361,"Botsford, O'Hara and Schaden",415-447-8459,919 Stang Center,94164,California,http://epa.gov
21b53862-a44b-4004-ab80-0bbc64c293fd,"Hyatt, Abbott and Connelly",612-645-5150,93843 Porter Alley,55428,Minnesota,https://noaa.gov
76749868-1e35-440f-8c72-a3227b577a11,"Schaden, Schumm and Beer",480-123-3097,0306 Marquette Circle,85255,Arizona,https://opensource.org
40840a31-1fa5-45e5-8b20-e6235eb281cf,"Shanahan, Bailey and Willms",832-609-1573,310 Rusk Lane,77090,Texas,https://wsj.com
05617a4b-64b5-443c-996b-ba18755eb287,"Robel, Von and Wuckert",253-125-3211,65 Welch Road,98464,Washington,http://unicef.org
3be1cb0e-d51d-43ac-8c68-8f8c389f8729,"Kshlerin, Prohaska and Koss",214-231-4713,9 Waxwing Lane,75358,Texas,https://unesco.org
26622566-ea9d-44c9-93ed-81d989712915,Feeney-Kuphal,574-246-7091,0 Kinsman Crossing,46620,Indiana,https://imageshack.us
921aa115-a72a-4601-99bb-c7a0e4cb4b7c,O'Connell Group,828-117-1446,279 Bowman Point,28805,North Carolina,http://mac.com
bcfabb30-9206-4399-ab1e-6d7ebd16dcd8,Hodkiewicz and Sons,915-592-9579,886 Clemons Junction,88563,Texas,http://dmoz.org
26a92d99-79de-4b65-b3f2-1da9dfcbaf95,Doyle-Rempel,661-504-6347,50151 Duke Plaza,93381,California,https://ezinearticles.com
be10be1b-c036-4617-8028-1b1d185e905b,"Hamill, Beier and Wehner",501-799-4198,32127 Pleasure Center,72231,Arkansas,https://cargocollective.com
f04555b8-5a32-4cfa-b188-77185b430a7b,Hoeger Inc,864-108-3977,8 Fallview Crossing,29615,South Carolina,https://wix.com
dae49353-816a-4ec6-a2fc-6bf67df03345,Davis Inc,915-796-6856,7 Kenwood Avenue,88589,Texas,https://mysql.com
02482fc8-4a51-4e2a-8492-95eedb2fb039,"Romaguera, Crona and Padberg",520-721-8122,12 Londonderry Place,85705,Arizona,https://cmu.edu
b2e9c5af-6ac3-4b01-9993-1eb04133ea2d,Shields LLC,816-122-1223,675 Dwight Terrace,64054,Missouri,https://apple.com
9c639421-7d4b-409b-b68c-e5805f044c6b,"Friesen, Ratke and Goldner",253-976-9375,6 Carioca Circle,98447,Washington,https://dot.gov
c35cba28-5971-4f72-87f7-99ddccdf35b3,"Stiedemann, Batz and Cole",615-981-3197,148 Norway Maple Road,37210,Tennessee,https://trellian.com
bc15202d-66f4-4962-a742-7a4752f253c6,"Ratke, Okuneva and Collins",407-926-3446,91735 Messerschmidt Terrace,32830,Florida,http://sourceforge.net
19e62224-44b2-433c-a00c-41159d757b15,"Murray, O'Kon and Littel",941-202-5410,3793 Eliot Park,34108,Florida,https://ycombinator.com
4dcf64e9-09df-4b65-b7cf-07073eff6ca9,Bins-Koch,860-364-3830,2459 Drewry Terrace,06160,Connecticut,http://unblog.fr
4b0ba7c4-6ec5-49ce-9118-9280847d52d9,Lehner-Medhurst,504-928-4666,5 Mendota Hill,70149,Louisiana,http://eventbrite.com
9c1d71db-2cca-43b3-ae95-91c5e6e560f5,Haley-Kuhic,816-863-1496,1 Lakewood Place,64187,Missouri,http://smugmug.com
0ea2beac-f2d3-4cf8-9d48-591badcaec01,Schowalter-Tromp,804-769-1533,3037 Banding Center,23220,Virginia,https://answers.com
90fc25d3-5e9c-4947-9305-9a88d9febc90,Konopelski-Kilback,318-957-2949,9183 Cottonwood Plaza,71213,Louisiana,http://mac.com
6f00092b-b4c8-4ee9-adf6-50a2b1b0f896,Mohr-Veum,850-520-0967,6362 Monument Road,32590,Florida,http://wikipedia.org
6b68b46f-de06-43bf-a9f0-60dc94c846a8,"Kertzmann, Bernier and Schultz",704-106-6314,382 Barby Drive,28225,North Carolina,https://aol.com
a609b725-a15a-44bb-8b03-ad1d2fc76b12,Wilderman LLC,952-334-0649,754 Anthes Court,55579,Minnesota,https://npr.org
c4ddbf7e-0b93-433b-8405-b0d5a178aa1c,Emmerich-Tillman,215-483-6147,95258 Marquette Circle,19160,Pennsylvania,https://github.io
71081485-48c1-4082-b298-f8cd977961a6,Roob-Gulgowski,602-529-7974,811 Moland Drive,85260,Arizona,http://fda.gov
60f04163-0345-44c7-83c1-bf3dfae477af,Hermann-Quitzon,605-156-3343,69 Amoth Park,57198,South Dakota,http://gravatar.com
8c0d2201-8384-47bc-bc54-a144dc9a1240,Hermiston-Harber,347-235-5152,64 Randy Way,11241,New York,http://salon.com
53c7b531-5bf4-48bf-bb4f-b58438ec8348,Hermiston-Kshlerin,217-526-8296,525 Oakridge Center,62723,Illinois,http://cbsnews.com
fe261f5b-0c88-4d51-804c-fbf1df31db2d,Mann-McClure,915-246-0707,9689 Sunbrook Junction,88563,Texas,https://huffingtonpost.com
6680da38-4fdb-4669-9c16-14de7257078d,Balistreri Group,203-297-1777,3262 Ronald Regan Terrace,06673,Connecticut,https://shinystat.com
c8b2b4f7-3fdb-42cd-a0d5-7b51e3841847,Muller Inc,206-823-6637,5 Hoepker Street,98195,Washington,http://nytimes.com
57708c66-dbaa-45e4-86ea-d28b7bf6fafa,Smith LLC,501-773-6181,4101 Hazelcrest Lane,72209,Arkansas,http://vimeo.com
20da175e-ae31-4f51-a5b2-383d8987ee1b,Parisian Group,719-988-9912,7925 Quincy Drive,80910,Colorado,http://a8.net
fa07d9c8-6d30-46e8-98b2-9975ae63abbe,Streich Inc,562-449-8052,8669 Farragut Park,94110,California,http://google.co.uk
ee16e8d4-ec05-47e7-8f65-7fd00f5d92c6,Christiansen Group,213-730-9422,0130 Karstens Trail,90087,California,http://clickbank.net
9c2c1c4c-3257-424f-8e2c-d79dda232fdf,"Brekke, McGlynn and Wiza",571-765-6045,933 Toban Place,22212,Virginia,https://comsenz.com
dcdc0d07-c993-4548-ab16-6bea4866b747,"Bogisich, Bernier and Schneider",585-523-2733,4807 Maryland Lane,14624,New York,https://adobe.com
bda65adb-8443-416d-8c4f-70a7fdc5caa6,"Mann, Purdy and Armstrong",325-596-9064,7 Buell Point,79605,Texas,https://homestead.com
a14227be-5507-4c72-92a4-e88ac1488f89,"Langosh, O'Reilly and O'Reilly",540-586-4038,4 Old Shore Lane,24040,Virginia,https://independent.co.uk
4589502d-4729-4b56-bec8-d703a3ad4277,Bergstrom LLC,214-744-0040,01312 Graedel Trail,75397,Texas,http://blogspot.com
5628a09c-d24d-4368-98d5-ffdc46240992,Stark-Wunsch,318-516-9609,868 Sunnyside Crossing,71130,Louisiana,http://sina.com.cn
78382cd2-fdbd-4962-b9f5-901cdf63b9d8,DuBuque-Sporer,617-893-2381,48906 Anzinger Plaza,02472,Massachusetts,http://netlog.com
daec8245-dd97-4a77-b89d-0cdd530a4355,Moen and Sons,701-304-2983,0 Gulseth Street,58207,North Dakota,http://miitbeian.gov.cn
4a2bfc9d-0000-4eda-9416-eb91e0e12b72,"Torp, Daniel and Stroman",316-567-3035,7 Beilfuss Lane,67230,Kansas,https://1688.com
96077a0b-ed69-4d00-9f54-b185188aa07f,"Stark, Lemke and Turner",713-100-6579,06006 Pierstorff Circle,77228,Texas,https://sina.com.cn
19c4df19-2000-49a5-b82b-9bde23556600,Kozey-Cummings,313-568-6413,89 Pennsylvania Junction,48295,Michigan,http://skyrock.com
d1894b89-1b9e-4bf2-bee8-43dd1c3ec05e,Gottlieb-Braun,407-340-8880,989 Goodland Lane,32803,Florida,http://bing.com
de4c59c1-907f-4661-89d6-a755d19b1bb2,"Douglas, Miller and Rath",215-794-7847,05986 Knutson Road,19184,Pennsylvania,http://a8.net
afe9b08d-0188-4e7d-8f6d-9792882f842e,"Blick, Monahan and Murazik",202-948-3748,1021 Victoria Drive,20226,District of Columbia,https://sohu.com
acbcfb00-17a9-425b-b908-211d88d70109,"Hansen, Turner and Towne",941-968-5953,57937 Northwestern Alley,34282,Florida,http://photobucket.com
5d74dfd1-8e0d-47b6-b2b1-870bfaffde5c,"Fritsch, Ziemann and Bartoletti",254-183-0663,85 Arizona Plaza,76544,Texas,http://adobe.com
0e46b155-ad90-4924-99c9-8b1ed60d577f,"Altenwerth, Breitenberg and Glover",215-964-8096,58161 Little Fleur Place,19146,Pennsylvania,http://pagesperso-orange.fr
8f0b000b-d347-4e60-be59-0e94482aa08a,Buckridge and Sons,402-891-6224,96 Brown Crossing,68105,Nebraska,https://deviantart.com
0d29411b-e0c0-4dcb-a138-a75f9eed04af,"Blanda, Fahey and Hills",423-554-9509,37451 Ohio Court,37450,Tennessee,https://clickbank.net
4d41f04b-de2b-40d9-8ae7-813292f4b04e,Hermann-Waters,251-630-7197,08 Truax Plaza,36641,Alabama,http://dot.gov
583fda7b-d883-4027-806a-29093dbd94b8,Farrell Group,202-707-1436,14 Myrtle Point,20540,District of Columbia,http://dailymail.co.uk
5e9550e3-268f-4c4f-8f86-3d7559dbb603,O'Conner-Kulas,616-801-9807,57383 Florence Pass,49505,Michigan,http://wired.com
df3905e6-e1e1-4b0f-8d26-dfaff0c89597,Gottlieb-Padberg,650-944-7504,208 Esch Hill,90045,California,https://nba.com
8c2a3008-8d10-4509-a3a0-ed75ba655f68,"Schiller, Carroll and Luettgen",314-233-1120,36 Graedel Crossing,63126,Missouri,https://360.cn
245f68cd-b26e-45d8-b05e-710d1d167054,"Collier, Davis and Dietrich",412-963-8344,4 Lawn Crossing,15230,Pennsylvania,https://about.com
eb327f1c-1152-4686-bb16-5d6c0211ab4c,"Walsh, Reynolds and Kuhn",210-732-3866,23 Thackeray Avenue,78278,Texas,http://yahoo.co.jp
6efe60cd-039e-4c85-8dd2-2afad4b8db32,Friesen and Sons,801-964-3057,7 Elmside Crossing,84189,Utah,https://gizmodo.com
7c5a36a0-3d64-4018-8af7-e3b2cce3f376,Lebsack Group,602-379-4930,559 Manley Parkway,85072,Arizona,https://huffingtonpost.com
86ab30d7-6f64-4523-9679-0919dd15aea4,"Hackett, Leannon and Frami",404-185-4602,577 Bunting Hill,30089,Georgia,http://jigsy.com
0a02f66b-2e65-4598-87fa-4e9678c63935,"Beier, Volkman and D'Amore",312-920-6915,3 Manufacturers Parkway,60624,Illinois,http://eepurl.com
46d76203-cdce-467e-b11a-63fe4edcb566,"Nikolaus, Okuneva and White",512-441-0300,186 Tomscot Plaza,78737,Texas,http://instagram.com
056c2dae-2fce-4e2f-bfe2-ca2deafada5c,"Hagenes, Nolan and Bode",213-640-1347,47860 New Castle Place,90087,California,https://youtube.com
165b590f-71ec-4a79-a1ce-47435b249023,"Stanton, Jerde and Monahan",478-545-8785,064 Manufacturers Center,31205,Georgia,http://wikia.com
623e1f12-3ccc-4e93-ac5c-442406e1ae92,Wuckert-Franecki,518-165-0925,77 Londonderry Avenue,12305,New York,https://rediff.com
4b0edb64-60be-439b-a3bf-c2032d4fb8fc,Stanton LLC,775-656-5502,38675 Logan Hill,89519,Nevada,https://so-net.ne.jp
0bee6b05-17d9-48de-89b5-676ecc9a3de5,Mosciski-Leffler,904-916-5030,9 Westport Court,32092,Florida,https://lycos.com
0b5ec214-79e5-4dc3-9dce-278f99c5256c,"Nikolaus, McKenzie and Hansen",413-716-7317,7477 Maryland Drive,01114,Massachusetts,http://over-blog.com
80b8f33f-2159-4373-940f-fd6353036534,Mills LLC,312-172-8476,4 Kensington Avenue,60609,Illinois,https://virginia.edu
8e23ad8f-3373-4bc6-aeb5-e9cc6d23248b,"Renner, Blick and Gorczany",602-812-3710,538 Pond Terrace,85053,Arizona,http://hibu.com
02e77c5d-5fa6-47e8-8f22-8fa302ca0e42,Daniel and Sons,516-480-4900,1 Village Green Street,11054,New York,https://de.vu
ea105d6a-5971-4bb9-9d93-0d50542cdf13,Powlowski Inc,937-671-7150,4785 Starling Court,45408,Ohio,http://i2i.jp
d549d78c-8402-4757-900c-7127e9b32833,Halvorson-Walsh,901-254-0748,94 Hanover Parkway,38197,Tennessee,https://free.fr
2cb79e27-d10a-419a-8ff3-d4e04a2ca04d,"Dooley, Huels and Brown",504-157-2528,6 Troy Court,70129,Louisiana,http://com.com
d147355a-48e0-431a-9aae-ff037e3cc8fa,Muller-Hane,407-424-9873,2 Hanover Crossing,32854,Florida,https://engadget.com
9960bdc0-a640-49ec-a7a8-2fb146429c60,"Volkman, McCullough and Murazik",717-226-5706,65 Jay Place,17126,Pennsylvania,http://shareasale.com
f78314e8-5b5e-409d-8b44-1ba1af67184a,"Leannon, Fritsch and Skiles",407-796-9977,52446 Brentwood Trail,32819,Florida,https://simplemachines.org
75092895-ab3f-4863-b029-843842326b06,Labadie Inc,916-930-8005,84 Sunbrook Road,95894,California,http://umich.edu
63a8fbd8-2aa6-42c5-9895-f4803ed2e670,Walsh-Johns,979-222-7065,38 Jackson Circle,77806,Texas,https://theguardian.com
9c02eba7-e7d4-4682-b1f9-21cfe05a1f44,"Stark, Brakus and Jaskolski",318-122-4581,0 Brentwood Parkway,71105,Louisiana,https://booking.com
5bbd60f1-cb40-4432-99b4-89061e7f7291,Towne and Sons,202-452-0180,850 Dryden Street,20057,District of Columbia,https://printfriendly.com
5a025b1a-04fb-49fa-9491-66d7a43dd6db,"Daugherty, Boyer and Wolff",361-829-1272,422 Chinook Place,78475,Texas,https://ucsd.edu
0607dd2e-7215-43dc-af30-d8bfb6e87201,Smith and Sons,916-754-9967,2506 Longview Center,95865,California,https://unesco.org
ac59281c-4408-47aa-8d63-030d35c0b8ec,"Romaguera, Quitzon and Wisoky",337-296-8770,4 Green Ridge Crossing,70607,Louisiana,http://house.gov
4b858a36-a672-4139-b738-6714490d97d8,Cremin Group,336-428-3894,42 Brentwood Avenue,27116,North Carolina,https://usa.gov
d931dda8-676a-4bb9-8bcd-9201cc3d154c,"Sporer, Koelpin and Bogan",970-409-8312,23 Dixon Court,81505,Colorado,https://hubpages.com
4f6a1bd9-b4df-4dd0-b115-8a449e58de95,Kunze Inc,720-374-1188,80 Meadow Vale Circle,80126,Colorado,https://virginia.edu
4d65a2e5-27bc-4a84-959e-0490d4b6b19d,Beahan-Parisian,502-519-0972,10238 Pepper Wood Point,40618,Kentucky,http://rakuten.co.jp
978de46e-c448-4f28-84b4-0c9caf313f91,Lockman and Sons,215-148-7611,0 Miller Center,19125,Pennsylvania,http://hibu.com
0a47fc01-f23f-48cb-b453-ab8bc12903c1,Feeney Inc,941-743-9330,1 Loftsgordon Park,34135,Florida,http://51.la
0aaf6424-81ff-462d-85a5-919cf8f812d8,"Boyer, Smith and Koch",510-729-6272,0 Autumn Leaf Terrace,94705,California,http://huffingtonpost.com
6f3e4d4a-104c-44b3-84c1-9b2bbc1b9181,"Ernser, Keeling and Wuckert",559-201-6127,51 Graceland Road,93773,California,http://bravesites.com
102c9a99-c602-42c2-8440-12221ef9544c,"Reichel, Upton and Jakubowski",334-438-9637,056 Goodland Park,36109,Alabama,https://ca.gov
fcb49bbf-a7ce-4008-9411-278daf56d6bf,Dietrich Group,504-418-6377,298 Sutherland Terrace,70183,Louisiana,https://sogou.com
0061b6c8-84f8-450a-a7d5-5f2dcfd16d83,Wisozk-Lang,770-326-1307,5607 Westend Terrace,30316,Georgia,http://linkedin.com
112beb2c-178c-4c0d-be25-2c4bed179e9b,"Hintz, Keeling and Hodkiewicz",727-586-4683,035 Glendale Road,33763,Florida,https://dedecms.com
dee72665-b596-426a-95dc-c2fcb5b6fabf,Roob Inc,218-183-8238,4 Erie Drive,55811,Minnesota,http://globo.com
75f6d6c7-ab5f-4bd9-b745-513393cd37ee,Stokes-Mitchell,862-869-5305,19 Melvin Plaza,07195,New Jersey,https://alexa.com
af0c756f-ba1d-406a-bffe-614beb6e2154,Stracke and Sons,972-212-2449,7 Shelley Point,75074,Texas,https://1688.com
c1b58229-a332-43bc-8b2b-90b61035e429,Cremin-Rau,256-731-4450,180 Ludington Terrace,35895,Alabama,http://abc.net.au
f46b3e4f-74ae-42d8-a442-b2b6253a8b65,"Bartell, Fahey and Brown",336-414-6290,2221 Meadow Vale Way,27409,North Carolina,http://ovh.net
27f61ef6-0590-4935-a627-412b5da4aa37,Davis and Sons,410-859-0239,41412 Dottie Alley,21203,Maryland,http://soundcloud.com
3b006365-ef63-4950-8a8a-9c35e960d9fb,"O'Keefe, Barrows and Koelpin",713-522-9001,88 Northview Street,77218,Texas,http://imgur.com
326f1da0-8aee-4d81-89c4-f0d3a35c7011,Goodwin-O'Kon,323-614-8694,4 Rieder Parkway,90076,California,http://hc360.com
cc09d4a2-aded-445b-8868-6e40c29c2e1d,Strosin LLC,215-469-0890,6462 Butterfield Lane,19125,Pennsylvania,http://sciencedaily.com
e929b97e-cc78-4c73-8e5a-2805f889007c,Jakubowski-Strosin,862-797-3627,506 Clarendon Alley,07544,New Jersey,https://last.fm
ce3c0fa9-ec85-4e0c-9557-488c1aac87cd,Rempel and Sons,314-534-3978,41 Lawn Place,63143,Missouri,http://princeton.edu
58d01700-de5e-49a6-b329-989216973dc1,"Hagenes, Dicki and Trantow",352-340-4500,6965 Lien Circle,32627,Florida,https://mail.ru
129a1929-c91f-4be0-8572-9275f36b0425,Stoltenberg LLC,304-495-7149,4 Manley Alley,25305,West Virginia,https://eepurl.com
5ea5c3c5-c33c-4fc4-9c94-8a7f257ba099,Kirlin-Durgan,253-188-4367,6845 Hoffman Road,98417,Washington,http://edublogs.org
e0d1cb29-f990-448a-bd04-f9ffbad664d6,Collins LLC,208-855-3122,35 Morningstar Junction,83711,Idaho,https://dyndns.org
1fc6d858-9c34-48d7-bcfc-6d780c7894d8,Bauch-Senger,937-465-5123,93 Meadow Ridge Junction,45426,Ohio,http://epa.gov
3356ac4a-591a-4ac5-950f-691ad61c825e,Bosco-Willms,402-194-0594,603 Cherokee Lane,68110,Nebraska,https://mozilla.com
fb090f02-3e9a-4a3b-8129-283f7551578a,"Rodriguez, Spencer and Ullrich",347-877-5573,21264 Kim Junction,11241,New York,http://prweb.com
c1cfcb0e-96e3-4d85-be94-47d7f826b1a0,"Champlin, Kohler and Balistreri",562-887-6294,08883 Orin Pass,90020,California,http://wunderground.com
fe1e38c6-aaee-4851-9ed4-9a35c7c8a8fd,Rutherford LLC,323-346-2109,7688 Ronald Regan Avenue,90076,California,https://jalbum.net
128250ed-36b5-4415-aaf9-cc2d4e88da87,Walker Inc,225-324-8678,43957 Maywood Trail,70826,Louisiana,https://indiatimes.com
e5c98722-2727-4503-9eea-6dfe21e06e97,"DuBuque, Volkman and Lesch",214-998-5327,85 Bay Center,75379,Texas,https://infoseek.co.jp
38bce728-03d9-4b37-bc34-38a8e39eb776,Collins-Leannon,804-860-4782,450 Sunnyside Plaza,23208,Virginia,https://redcross.org
1536c5ae-4eb6-4541-b751-aae094aa4450,McCullough-Nikolaus,909-254-8317,32321 Oakridge Lane,92410,California,http://booking.com
b7d0c045-3043-4bd7-a586-1a343fdf17c1,Murray Inc,313-171-6161,21877 Bobwhite Street,48275,Michigan,http://goo.ne.jp
c4f450f5-ea66-44a2-8a11-eba08849ec49,Cummerata-Konopelski,916-867-6330,63 Waywood Park,95865,California,https://ovh.net
06b7fdf8-1810-4c9d-854d-a07bec09964a,Erdman and Sons,850-226-0584,34151 Dixon Crossing,32526,Florida,http://nps.gov
87557008-f915-4f36-81d2-191ae57e46db,Hayes and Sons,754-776-2796,686 Wayridge Trail,33355,Florida,https://phpbb.com
dafaa531-f08f-422f-8693-9da2f1a713fd,Schmidt and Sons,205-296-8150,76687 Aberg Circle,35405,Alabama,http://nytimes.com
9dbb7f2a-d621-40ef-a126-ac1748b98007,Abbott LLC,801-952-3117,9550 Homewood Hill,84120,Utah,https://guardian.co.uk
7d853b6f-177b-466f-a99d-2901673dff13,Durgan-Dooley,208-108-0035,423 Clyde Gallagher Park,83732,Idaho,https://cloudflare.com
c456e0d5-7e4e-49c6-97ac-bf5930575365,Rau-Fisher,402-784-2592,0 Harper Court,68531,Nebraska,http://opensource.org
448dd22e-85b7-4b20-afbd-bbb7d52d36ff,"Miller, Reichel and Reynolds",415-987-3644,6 Superior Alley,94147,California,http://posterous.com
